{"type":"FeatureCollection","attribution":"(c) OpenStreetMap contributors, ODbL 1.0","generator":"tools/build_vectors.py","region":{"west":-75.8,"east":-74.7,"south":39.7,"north":40.55},"features":[{"type":"Feature","properties":{"k":1,"n":"River Line"},"geometry":{"type":"MultiLineString","coordinates":[[[-74.86369,40.07611],[-74.91004,40.06266],[-74.8585,40.07765],[-74.84933,40.07899],[-74.80257,40.10123],[-74.83385,40.08628]],[[-74.92546,40.05808],[-74.94134,40.05344],[-74.94574,40.05164],[-74.94961,40.04889],[-74.95614,40.04108],[-74.96167,40.03784],[-74.95617,40.04099],[-74.94969,40.04876],[-74.94592,40.05147],[-74.94116,40.05346],[-74.92546,40.05808]],[[-75.0317,39.99805],[-75.03949,39.99324],[-75.04708,39.98965],[-75.05707,39.98162],[-75.04682,39.98976],[-75.03836,39.99381],[-74.98061,40.02799],[-75.00574,40.01328]],[[-74.75685,40.21636],[-74.75097,40.19129],[-74.74912,40.18788],[-74.7443,40.18523],[-74.73541,40.18411],[-74.7295,40.18254],[-74.72194,40.17803],[-74.71999,40.17551],[-74.71846,40.17183],[-74.7196,40.17491],[-74.72196,40.17812],[-74.72955,40.18261],[-74.735,40.18408],[-74.74419,40.18524],[-74.74909,40.18791],[-74.75111,40.19203],[-74.75665,40.21559]],[[-74.71815,40.14572],[-74.72507,40.14393],[-74.73315,40.13857],[-74.73534,40.13589],[-74.73932,40.12722],[-74.7427,40.1241],[-74.74838,40.12204],[-74.75662,40.12061],[-74.74836,40.12201],[-74.74267,40.12407],[-74.73927,40.1272],[-74.73529,40.13587],[-74.7331,40.13854],[-74.72503,40.14389],[-74.71958,40.14511],[-74.71628,40.1468],[-74.71637,40.14976],[-74.71423,40.15275],[-74.71507,40.16121],[-74.71846,40.17183]],[[-74.92546,40.05808],[-74.91004,40.06266]],[[-74.80257,40.10123],[-74.76799,40.11797],[-74.76376,40.11939],[-74.75662,40.12061]],[[-74.98061,40.02799],[-74.96167,40.03784]],[[-75.05707,39.98162],[-75.06375,39.97702],[-75.06553,39.97479]]]}},{"type":"Feature","properties":{"k":2,"n":"PATCO High Speed Line"},"geometry":{"type":"MultiLineString","coordinates":[[[-75.09201,39.92287],[-75.10916,39.93315],[-75.11085,39.93527],[-75.11271,39.94132],[-75.11371,39.94245],[-75.12132,39.94354],[-75.12014,39.94915],[-75.12252,39.95092],[-75.14775,39.95542],[-75.14895,39.95604],[-75.15273,39.95477],[-75.15483,39.94711],[-75.17078,39.94902]],[[-74.99909,39.83232],[-75.00157,39.83545],[-75.00851,39.85204],[-75.00938,39.86509],[-75.01113,39.87034],[-75.01524,39.8749],[-75.02407,39.88007],[-75.0305,39.88533],[-75.03479,39.8942],[-75.03999,39.90228],[-75.04492,39.90614],[-75.05108,39.90926],[-75.08822,39.92115],[-75.0965,39.92574]],[[-75.17079,39.94897],[-75.15482,39.94707],[-75.15283,39.95428],[-75.15185,39.95504],[-75.14766,39.95509],[-75.12262,39.95064],[-75.1202,39.94917],[-75.12138,39.94352],[-75.11393,39.94254],[-75.11276,39.94128],[-75.11087,39.9352],[-75.10924,39.93317],[-75.09183,39.92269],[-75.0868,39.92063],[-75.05262,39.9098],[-75.04419,39.90558],[-75.03872,39.9006],[-75.03054,39.88531],[-75.0241,39.88004],[-75.01529,39.87487],[-75.01189,39.87113],[-75.00953,39.86561],[-75.00855,39.85203],[-75.00142,39.83504],[-74.99872,39.83188]]]}},{"type":"Feature","properties":{"k":2,"n":"River Line"},"geometry":{"type":"MultiLineString","coordinates":[[[-75.12782,39.93937],[-75.12934,39.94223],[-75.12774,39.94804],[-75.12238,39.94711],[-75.12247,39.94487],[-75.11948,39.94267],[-75.1126,39.94284],[-75.11048,39.94376],[-75.09997,39.94582],[-75.09199,39.94934],[-75.07784,39.96277],[-75.09203,39.94937],[-75.09999,39.94585],[-75.11059,39.94378],[-75.11256,39.94289],[-75.11946,39.94271],[-75.12243,39.94489],[-75.12228,39.94717],[-75.1278,39.94817],[-75.12948,39.94227],[-75.12788,39.93938]],[[-75.06553,39.97479],[-75.06789,39.96921],[-75.07538,39.96489],[-75.07784,39.96277]]]}},{"type":"Feature","properties":{"k":1},"geometry":{"type":"MultiLineString","coordinates":[[[-75.08613,39.95506],[-75.07635,39.9643],[-75.0683,39.96889],[-75.06473,39.9758]],[[-75.19162,39.97784],[-75.19707,39.97416],[-75.19869,39.97193],[-75.19781,39.96961],[-75.19531,39.96845]],[[-75.02214,40.28718],[-75.01989,40.28302]],[[-75.1985,39.972],[-75.19808,39.9705],[-75.19678,39.96932],[-75.19372,39.96768],[-75.18855,39.96602]],[[-75.18934,39.96654],[-75.19405,39.96785],[-75.19805,39.97059],[-75.19806,39.97301],[-75.1944,39.97595]],[[-75.52405,39.73666],[-75.51958,39.74338],[-75.5134,39.74858]],[[-75.51295,39.74894],[-75.51963,39.7434],[-75.52383,39.73699]],[[-75.0859,39.95532],[-75.07503,39.96519]],[[-75.5272,40.4263],[-75.52482,40.42449],[-75.51035,40.40847]],[[-75.50604,40.40371],[-75.49941,40.39628]],[[-75.16553,39.95409],[-75.17009,39.95463],[-75.16555,39.95402]],[[-75.17101,39.95471],[-75.16556,39.95398]],[[-75.48979,40.49597],[-75.48865,40.49447],[-75.48874,40.49292],[-75.49258,40.48962],[-75.49483,40.48639],[-75.49638,40.48548],[-75.49982,40.48539],[-75.50173,40.48473],[-75.50306,40.48322],[-75.50392,40.47932],[-75.50811,40.47765]]]}},{"type":"Feature","properties":{"k":1,"n":"Atlantic City Line"},"geometry":{"type":"MultiLineString","coordinates":[[[-74.85039,39.68302],[-74.84486,39.69107],[-74.84312,39.69511],[-74.84298,39.70031],[-74.84512,39.70875],[-74.87749,39.75218],[-74.88202,39.75964],[-74.87446,39.74817]],[[-74.88202,39.75964],[-74.88924,39.77148],[-74.8942,39.77569],[-74.94422,39.80501],[-74.96502,39.81212],[-74.97781,39.82063],[-74.99574,39.83007],[-74.99965,39.83308],[-75.00181,39.83628],[-75.00844,39.85202],[-75.00938,39.86563],[-75.01138,39.87086],[-75.01524,39.875],[-75.02393,39.88007],[-75.03045,39.88536],[-75.03839,39.90025],[-75.04296,39.90573],[-75.04117,39.93531],[-75.03793,39.95178],[-75.03894,39.95553],[-75.05111,39.97015],[-75.0754,39.98694],[-75.08545,39.99747],[-75.09029,39.9999],[-75.09913,40.00161]],[[-75.04156,39.92986],[-75.04259,39.91425]],[[-75.06385,39.97911],[-75.05854,39.97556]],[[-74.9542,39.80832],[-74.96401,39.81162],[-74.97632,39.81964]]]}},{"type":"Feature","properties":{"k":1,"n":"Beesleys Point Secondary"},"geometry":{"type":"MultiLineString","coordinates":[[[-75.11711,39.91939],[-75.11691,39.91777],[-75.11565,39.91702],[-75.10384,39.91671],[-75.09673,39.91416],[-75.08964,39.90729],[-75.07454,39.89722],[-75.05439,39.8785],[-75.04276,39.86522],[-75.03568,39.85389],[-75.02752,39.84606],[-75.02111,39.83728],[-74.99861,39.81567],[-74.98693,39.80116],[-74.98037,39.79649],[-74.97006,39.79125],[-74.9551,39.77943],[-74.91423,39.72894],[-74.89863,39.7132],[-74.879,39.68503],[-74.87197,39.67945]]]}},{"type":"Feature","properties":{"k":1,"n":"Vineland Secondary"},"geometry":{"type":"MultiLineString","coordinates":[[[-75.1166,39.69877],[-75.12273,39.70624],[-75.12407,39.70884],[-75.12712,39.72492],[-75.13499,39.75416],[-75.14724,39.76987],[-75.14937,39.77416],[-75.15255,39.82729],[-75.15125,39.83346],[-75.14106,39.85441],[-75.12024,39.88178],[-75.11672,39.92451],[-75.11601,39.92644],[-75.11112,39.93137],[-75.11116,39.93557]],[[-75.11113,39.93542],[-75.11096,39.93158],[-75.11618,39.92605],[-75.11708,39.91969]]]}},{"type":"Feature","properties":{"k":1,"n":"West Leg of Wye"},"geometry":{"type":"MultiLineString","coordinates":[[[-75.0591,39.97593],[-75.06208,39.97698],[-75.06473,39.9758]]]}},{"type":"Feature","properties":{"k":1,"n":"Penns Grove Secondary"},"geometry":{"type":"MultiLineString","coordinates":[[[-75.15125,39.83346],[-75.15252,39.83086],[-75.15538,39.83016],[-75.19882,39.84429],[-75.23218,39.83473],[-75.24569,39.83436],[-75.27058,39.82797],[-75.29548,39.8263],[-75.32708,39.80106],[-75.33025,39.80008],[-75.35188,39.7989],[-75.37126,39.7932],[-75.4711,39.73138],[-75.47294,39.72959],[-75.47413,39.72672],[-75.4735,39.72093],[-75.47697,39.71327],[-75.47561,39.71084]]]}},{"type":"Feature","properties":{"k":1,"n":"Northeast Corridor"},"geometry":{"type":"MultiLineString","coordinates":[[[-74.68288,40.27071],[-74.74678,40.22442],[-74.77761,40.20013],[-74.78126,40.19503],[-74.7879,40.1755],[-74.79714,40.15832],[-74.83388,40.12532],[-74.84495,40.11166],[-74.85104,40.10695],[-74.86155,40.1016],[-74.87006,40.09887],[-74.91524,40.09235],[-74.92081,40.0908],[-74.95042,40.07274],[-74.97955,40.05905],[-74.9883,40.0512],[-74.99453,40.04828],[-75.00905,40.03966],[-75.01995,40.03501],[-75.04048,40.02243],[-75.05715,40.01419],[-75.08602,40.00672],[-75.08885,40.00527],[-75.09257,40.00214],[-75.0949,40.00135],[-75.12556,40.00501],[-75.13437,40.0049],[-75.16407,39.99383],[-75.17812,39.98672],[-75.19162,39.97784]],[[-75.1827,39.95238],[-75.18135,39.95779],[-75.18165,39.95955],[-75.18254,39.95279],[-75.18477,39.94958],[-75.19466,39.94561],[-75.20194,39.94479],[-75.20503,39.94367],[-75.24405,39.91594],[-75.24865,39.91405],[-75.25582,39.91269],[-75.25987,39.91132],[-75.27005,39.90468],[-75.3092,39.88826],[-75.32467,39.87896],[-75.32903,39.87489],[-75.33809,39.86075],[-75.3443,39.85575],[-75.36676,39.84686],[-75.38375,39.83788],[-75.43634,39.81385],[-75.43921,39.81155],[-75.4525,39.79743],[-75.46707,39.78824],[-75.47066,39.78523],[-75.48159,39.77315],[-75.48907,39.75944],[-75.49345,39.75556],[-75.49799,39.75396],[-75.51091,39.75174],[-75.5171,39.74994],[-75.5438,39.73652],[-75.54819,39.73616],[-75.5567,39.73907],[-75.56048,39.73885],[-75.56266,39.7375],[-75.577,39.72288],[-75.58349,39.71912],[-75.6018,39.713],[-75.61416,39.71139],[-75.64718,39.70521],[-75.66168,39.69848]],[[-75.1944,39.97595],[-75.17851,39.98644],[-75.16405,39.9938],[-75.13437,40.00487],[-75.12556,40.00498],[-75.09489,40.00131],[-75.09254,40.00212],[-75.08882,40.00524],[-75.086,40.00668],[-75.05713,40.01416],[-75.04062,40.0223],[-75.01993,40.03498],[-75.00902,40.03963],[-74.9945,40.04825],[-74.98827,40.05117],[-74.97931,40.05913],[-74.94971,40.07309],[-74.92077,40.09078],[-74.9153,40.0923],[-74.86929,40.099],[-74.86168,40.1015],[-74.85078,40.10705],[-74.84484,40.11172],[-74.834,40.12515],[-74.79693,40.15851],[-74.78785,40.17549],[-74.78109,40.19419],[-74.77566,40.20152],[-74.74676,40.2244],[-74.68284,40.27068]],[[-75.19924,39.94515],[-75.2028,39.94464],[-75.2054,39.94351],[-75.20942,39.94016],[-75.24471,39.91563],[-75.24867,39.91408],[-75.25557,39.91279],[-75.25989,39.91134],[-75.27007,39.90471],[-75.31036,39.88769],[-75.32732,39.87689],[-75.33747,39.86159],[-75.34308,39.85654],[-75.3467,39.85465],[-75.36681,39.84688],[-75.38378,39.83791],[-75.43511,39.81463],[-75.43924,39.81157],[-75.45222,39.79773],[-75.46268,39.79103]],[[-75.18222,39.95305],[-75.18096,39.95798],[-75.18145,39.95951],[-75.18106,39.95816],[-75.18222,39.95305],[-75.18474,39.94955],[-75.19454,39.94559],[-75.20157,39.94482],[-75.20484,39.94372],[-75.24402,39.91591],[-75.24863,39.91402],[-75.25936,39.9115],[-75.27002,39.90464],[-75.31056,39.88749],[-75.32725,39.87684],[-75.33738,39.86156],[-75.34323,39.85634],[-75.36694,39.84674],[-75.38373,39.83785],[-75.43507,39.81457],[-75.43917,39.81153],[-75.45232,39.79754],[-75.46259,39.79095],[-75.4523,39.79751],[-75.43912,39.81153],[-75.43504,39.81454],[-75.38371,39.83782],[-75.36593,39.84715],[-75.34662,39.85454],[-75.34299,39.85644],[-75.33734,39.86154],[-75.32722,39.87682],[-75.31036,39.88756],[-75.27,39.90461],[-75.25934,39.91146],[-75.24514,39.91529],[-75.21911,39.93326]],[[-75.18297,39.95222],[-75.18171,39.95855],[-75.18215,39.96011],[-75.18175,39.95933],[-75.18332,39.95139],[-75.18178,39.95895],[-75.18594,39.96484],[-75.18165,39.95955]],[[-74.68291,40.27073],[-74.74682,40.22445],[-74.75889,40.21443],[-74.77744,40.20037],[-74.78115,40.19536],[-74.78785,40.17573],[-74.79703,40.15851],[-74.83433,40.12495],[-74.84469,40.112],[-74.8505,40.1073],[-74.86145,40.10169],[-74.86978,40.09897],[-74.91574,40.09231],[-74.9209,40.09081],[-74.95019,40.07291],[-74.97957,40.05907],[-74.98833,40.05123],[-74.99456,40.04831],[-75.00908,40.03969],[-75.01998,40.03503],[-75.0405,40.02246],[-75.05717,40.01422],[-75.08572,40.00686],[-75.08888,40.00529],[-75.0926,40.00217],[-75.09491,40.00138],[-75.12495,40.005],[-75.13439,40.00494],[-75.1641,39.99386],[-75.17836,39.98662],[-75.18991,39.97898]],[[-75.18167,39.95973],[-75.18112,39.95813],[-75.18253,39.95253],[-75.18124,39.95824],[-75.1822,39.96046],[-75.18777,39.96652],[-75.19708,39.96979],[-75.19811,39.97131],[-75.19796,39.97296],[-75.19595,39.97487],[-75.1785,39.98641],[-75.16347,39.99403],[-75.13302,40.00508],[-75.12456,40.00485],[-75.0945,40.00134],[-75.09251,40.00209],[-75.08879,40.00521],[-75.08596,40.00666],[-75.0575,40.01398],[-75.04059,40.02227],[-75.0199,40.03495],[-75.009,40.0396],[-74.99448,40.04822],[-74.98824,40.05114],[-74.97949,40.05898],[-74.95055,40.07259],[-74.9209,40.09068],[-74.91573,40.09219],[-74.86987,40.09883],[-74.8616,40.10149],[-74.8496,40.10771],[-74.84474,40.11176],[-74.83416,40.12495],[-74.79705,40.15829],[-74.78794,40.17518],[-74.78114,40.19397],[-74.77564,40.20148],[-74.74673,40.22438],[-74.68281,40.27066]],[[-75.19009,39.97887],[-75.19748,39.97401],[-75.1984,39.97136],[-75.19646,39.96931],[-75.18909,39.96715],[-75.18594,39.96484]],[[-75.46259,39.79095],[-75.47004,39.78569],[-75.47611,39.77898],[-75.48276,39.77105],[-75.4893,39.75901],[-75.49385,39.75531],[-75.49799,39.75393],[-75.50941,39.75202],[-75.51707,39.74991],[-75.54376,39.73649],[-75.5482,39.73612],[-75.55662,39.73902],[-75.56039,39.73885],[-75.56236,39.73772],[-75.57644,39.72331],[-75.58347,39.71909],[-75.60179,39.71297],[-75.61415,39.71135],[-75.64716,39.70518],[-75.66167,39.69843]],[[-75.18153,39.95781],[-75.18213,39.96019],[-75.18156,39.95838],[-75.18303,39.95183],[-75.18153,39.95781]],[[-75.70999,39.68335],[-75.67856,39.69266],[-75.66455,39.69739],[-75.64715,39.70515],[-75.61414,39.71132],[-75.60178,39.71293],[-75.58421,39.71877],[-75.57694,39.72283],[-75.56232,39.73769],[-75.56044,39.73879],[-75.55672,39.739],[-75.54989,39.73646],[-75.54678,39.73603]],[[-75.46151,39.79162],[-75.47008,39.7857],[-75.47799,39.77709],[-75.48272,39.77088],[-75.48927,39.759],[-75.49206,39.7563],[-75.49724,39.75407],[-75.51539,39.75045],[-75.52162,39.74794],[-75.52882,39.74409]],[[-75.21194,39.97296],[-75.20189,39.97032],[-75.19988,39.97077],[-75.19857,39.97217]],[[-75.20123,39.94501],[-75.20535,39.94359],[-75.2207,39.93235]],[[-75.46159,39.7917],[-75.47062,39.7852],[-75.47802,39.77711],[-75.48256,39.77121],[-75.48512,39.76655]],[[-75.18213,39.96019],[-75.18536,39.96421]]]}},{"type":"Feature","properties":{"k":1,"n":"Neshaminy Line"},"geometry":{"type":"MultiLineString","coordinates":[[[-75.13784,40.09344],[-75.1383,40.09604],[-75.13727,40.09825],[-75.13259,40.10187],[-75.12981,40.10315],[-75.03082,40.1247],[-74.9872,40.13844],[-74.97347,40.14366],[-74.94755,40.15092],[-74.93492,40.15523],[-74.9155,40.15975],[-74.90749,40.16293],[-74.90499,40.16479],[-74.89915,40.17181],[-74.89317,40.18741],[-74.89049,40.19129],[-74.85846,40.21699],[-74.82635,40.23824],[-74.81489,40.25845]],[[-74.92459,40.15768],[-74.93548,40.15511],[-74.94773,40.15091],[-74.97329,40.14375],[-74.98722,40.13847],[-75.03127,40.12462],[-75.12992,40.10317],[-75.13292,40.1017],[-75.13724,40.09836],[-75.13833,40.09614],[-75.13808,40.09403]],[[-74.8327,40.23394],[-74.85849,40.21701],[-74.88987,40.19196],[-74.89331,40.18721],[-74.89923,40.17178],[-74.90573,40.16414],[-74.9146,40.16007],[-74.9245,40.1577]]]}},{"type":"Feature","properties":{"k":1,"n":"Keystone Corridor"},"geometry":{"type":"MultiLineString","coordinates":[[[-75.81047,39.98817],[-75.80495,39.98874],[-75.79565,39.98775],[-75.79077,39.98801],[-75.75714,39.99353],[-75.7436,39.99508],[-75.73336,39.99746],[-75.72013,39.99943],[-75.70893,40.00234],[-75.69103,40.00333],[-75.6779,40.00731],[-75.674,40.00709],[-75.66835,40.00505],[-75.66496,40.00507],[-75.63614,40.01533],[-75.59063,40.02812],[-75.56591,40.03322],[-75.53464,40.03728],[-75.5315,40.03707],[-75.52568,40.03558],[-75.5188,40.03569],[-75.4908,40.04302],[-75.47333,40.04243],[-75.45863,40.04309],[-75.44992,40.04493],[-75.43991,40.04888],[-75.42847,40.04641],[-75.41221,40.04932],[-75.40541,40.04978],[-75.39733,40.04869],[-75.38823,40.04595],[-75.37254,40.04393],[-75.36861,40.04362],[-75.36097,40.04477],[-75.35548,40.04424],[-75.3518,40.04323],[-75.33998,40.03742],[-75.33069,40.03192],[-75.32471,40.02595],[-75.30442,40.01667],[-75.29522,40.01093],[-75.28165,40.00398],[-75.27504,40.00267],[-75.26085,40.00487],[-75.25791,40.00459],[-75.2553,40.00362],[-75.25318,40.00197],[-75.25188,39.9999],[-75.25135,39.99356],[-75.24978,39.9897],[-75.24687,39.98647],[-75.24352,39.98434],[-75.2159,39.974],[-75.19589,39.96847]],[[-75.21913,39.97537],[-75.24237,39.98394],[-75.24674,39.98652],[-75.24921,39.98907],[-75.25076,39.99194],[-75.25201,40.00053],[-75.25539,40.00379],[-75.26024,40.00498],[-75.2746,40.00279],[-75.28137,40.00398],[-75.29515,40.01102],[-75.30435,40.01676],[-75.32463,40.02603],[-75.3306,40.032],[-75.3399,40.03751],[-75.35172,40.04332],[-75.36031,40.04484],[-75.36862,40.04372],[-75.37252,40.04403],[-75.38833,40.04607],[-75.39776,40.04887],[-75.40542,40.04988],[-75.41222,40.04942],[-75.42847,40.04651],[-75.43992,40.04899],[-75.44998,40.04503],[-75.45865,40.0432],[-75.47333,40.04253],[-75.4904,40.04316],[-75.5185,40.03581],[-75.52561,40.03564],[-75.53458,40.03736],[-75.57267,40.03248],[-75.59125,40.02811],[-75.63878,40.01467],[-75.6652,40.00514],[-75.66809,40.00513],[-75.67399,40.00717],[-75.67764,40.00741],[-75.69141,40.00338],[-75.70894,40.00244],[-75.72132,39.99931],[-75.79064,39.98812],[-75.79547,39.98785],[-75.80494,39.98883],[-75.81051,39.98825]],[[-75.58248,40.02991],[-75.59064,40.02816],[-75.63815,40.01479],[-75.66522,40.00508],[-75.66842,40.00512],[-75.67399,40.00713],[-75.67789,40.00734],[-75.69094,40.00339],[-75.70894,40.00237],[-75.72014,39.99946],[-75.7341,39.99736],[-75.7431,39.9952],[-75.75715,39.99356],[-75.78925,39.98827]],[[-75.19531,39.96845],[-75.2164,39.97428],[-75.24358,39.98441],[-75.2475,39.98712],[-75.24996,39.99015],[-75.25128,39.99364],[-75.25192,40.00022],[-75.25523,40.00366],[-75.26028,40.00494],[-75.27459,40.00276],[-75.27815,40.00302],[-75.28162,40.00404],[-75.29518,40.01099],[-75.30437,40.01673],[-75.32465,40.02601],[-75.32922,40.03089],[-75.3341,40.03413],[-75.35034,40.04267],[-75.35397,40.044],[-75.36164,40.04485],[-75.37005,40.0437],[-75.38822,40.04601],[-75.39731,40.04875],[-75.40623,40.04985],[-75.41223,40.04939],[-75.42847,40.04648],[-75.43992,40.04895],[-75.44903,40.04529],[-75.45626,40.04351],[-75.46299,40.04282],[-75.47806,40.0427]],[[-75.47806,40.04266],[-75.4705,40.04254],[-75.45701,40.04335],[-75.44902,40.04525],[-75.43992,40.04892],[-75.42847,40.04644],[-75.41221,40.04935],[-75.40623,40.04982],[-75.39732,40.04872],[-75.38823,40.04598],[-75.37005,40.04367],[-75.3619,40.04481],[-75.35399,40.04397],[-75.35035,40.04263],[-75.33412,40.0341],[-75.32926,40.03087],[-75.32467,40.02599],[-75.3044,40.0167],[-75.2952,40.01096],[-75.28141,40.00392],[-75.27459,40.00272],[-75.26029,40.00491],[-75.25523,40.00362],[-75.25194,40.00017],[-75.2514,39.99408],[-75.25018,39.99044],[-75.24615,39.98596]],[[-75.19734,39.96886],[-75.2132,39.97329]],[[-75.75936,39.99348],[-75.75261,39.99425]],[[-75.48478,40.04306],[-75.49091,40.04304]]]}},{"type":"Feature","properties":{"k":1,"n":"C&F Secondary"},"geometry":{"type":"MultiLineString","coordinates":[[[-75.60178,40.57492],[-75.60451,40.55411],[-75.60082,40.54248],[-75.60244,40.52808],[-75.60051,40.51459],[-75.60221,40.5123],[-75.60747,40.51123]]]}},{"type":"Feature","properties":{"k":1,"n":"East Penn"},"geometry":{"type":"MultiLineString","coordinates":[[[-75.48888,40.55239],[-75.48927,40.55034],[-75.48831,40.54825],[-75.48343,40.54572],[-75.48197,40.54401],[-75.48186,40.54249],[-75.48361,40.53758],[-75.48633,40.53335],[-75.49292,40.53011],[-75.4954,40.52429],[-75.50209,40.52089],[-75.50289,40.51562],[-75.502,40.51434],[-75.5004,40.51373],[-75.48881,40.51245],[-75.48133,40.51292],[-75.47907,40.51179],[-75.47837,40.51007],[-75.47997,40.50812],[-75.48571,40.5071],[-75.49359,40.50331],[-75.49464,40.50145],[-75.49359,40.49965]]]}},{"type":"Feature","properties":{"k":1,"n":"Philadelphia Subdivision"},"geometry":{"type":"MultiLineString","coordinates":[[[-75.19788,39.98121],[-75.20163,39.98325],[-75.20526,39.9872],[-75.20557,39.98851],[-75.20445,39.98996],[-75.19924,39.99286],[-75.19603,39.99666],[-75.19236,40.00577],[-75.18968,40.00682],[-75.17523,40.00793],[-75.16587,40.01205]],[[-75.18758,39.97583],[-75.18814,39.97731],[-75.18751,39.97919],[-75.18803,39.97803],[-75.18933,39.97734]],[[-75.1659,40.01209],[-75.17524,40.00798],[-75.18973,40.00687],[-75.19184,40.00622],[-75.19293,40.00502],[-75.19535,39.9979],[-75.19813,39.99409],[-75.20025,39.99224],[-75.20485,39.98977],[-75.20714,39.98689],[-75.20734,39.98252],[-75.20158,39.97844],[-75.19937,39.97609],[-75.1978,39.96993],[-75.19595,39.96877],[-75.18781,39.96637],[-75.18513,39.96366],[-75.18404,39.96101],[-75.18408,39.958],[-75.18599,39.95189],[-75.1929,39.94561],[-75.19313,39.94461],[-75.19232,39.94362],[-75.19465,39.94475],[-75.19744,39.94495]],[[-75.68261,39.69948],[-75.66867,39.70599],[-75.64933,39.72052],[-75.62086,39.73004],[-75.59231,39.73398],[-75.58966,39.7362],[-75.5825,39.74795],[-75.57997,39.75],[-75.55994,39.75968],[-75.53915,39.76607],[-75.52577,39.77471],[-75.51015,39.77915],[-75.50406,39.78216],[-75.49163,39.79191],[-75.48471,39.801],[-75.4511,39.82976],[-75.42681,39.84034],[-75.40829,39.84541],[-75.38559,39.84818],[-75.37037,39.85347],[-75.35712,39.85884],[-75.38562,39.84822],[-75.40831,39.84545],[-75.42599,39.84063],[-75.44772,39.83129]],[[-75.19232,39.94362],[-75.18619,39.94047],[-75.1853,39.93903],[-75.19134,39.91092]],[[-75.18805,39.94137],[-75.18574,39.94014],[-75.18523,39.93861],[-75.19151,39.90991]],[[-75.25114,39.91979],[-75.23395,39.92872],[-75.20377,39.93596],[-75.19734,39.94012],[-75.19231,39.94179],[-75.18113,39.95054],[-75.17845,39.95702],[-75.17909,39.95994],[-75.1785,39.95702],[-75.18119,39.95056],[-75.19222,39.94188],[-75.19747,39.94018],[-75.20372,39.93601],[-75.23429,39.92864],[-75.25308,39.91879],[-75.27358,39.91098],[-75.32074,39.88975],[-75.35145,39.86209],[-75.35712,39.85884]],[[-75.1979,39.98118],[-75.20172,39.98329],[-75.20522,39.98706],[-75.20564,39.98844],[-75.20445,39.99001],[-75.19836,39.99375],[-75.19545,39.99759],[-75.19371,40.00249]],[[-75.17909,39.95994],[-75.17977,39.96215],[-75.17885,39.96489],[-75.1794,39.96642],[-75.18564,39.97224],[-75.18811,39.97663],[-75.19487,39.97879],[-75.19754,39.98107]],[[-75.19043,39.97734],[-75.19491,39.97886],[-75.19753,39.98111]],[[-75.19423,40.00107],[-75.19558,39.99756],[-75.19818,39.9941],[-75.20266,39.99099]]]}},{"type":"Feature","properties":{"k":1,"n":"Harrisburg Line"},"geometry":{"type":"MultiLineString","coordinates":[[[-75.1899,40.00685],[-75.19525,40.00647],[-75.19919,40.00752],[-75.20568,40.01032],[-75.21425,40.01527],[-75.21907,40.02067],[-75.22945,40.02498],[-75.24189,40.03357],[-75.22948,40.02495],[-75.21909,40.02063],[-75.21529,40.01609],[-75.21116,40.01319],[-75.2004,40.00796],[-75.19405,40.00601],[-75.19322,40.00489],[-75.19345,40.00345]],[[-75.50922,40.13423],[-75.50305,40.1294],[-75.49294,40.12439],[-75.48881,40.12372],[-75.47967,40.12439],[-75.47585,40.1239],[-75.47326,40.1228],[-75.4716,40.12113],[-75.47095,40.11909],[-75.4728,40.11395],[-75.47238,40.111],[-75.46904,40.10588],[-75.46604,40.10351],[-75.46305,40.10241],[-75.45939,40.1027],[-75.44912,40.10664],[-75.44129,40.10769],[-75.42306,40.10648],[-75.4192,40.10671],[-75.40704,40.11032],[-75.40022,40.11391],[-75.39352,40.11522],[-75.37669,40.11471],[-75.35841,40.11096],[-75.34739,40.10669],[-75.32893,40.10477],[-75.32646,40.10301],[-75.32471,40.09956],[-75.32285,40.09179],[-75.32136,40.0804],[-75.32004,40.07758],[-75.31681,40.07404],[-75.31037,40.06942],[-75.3072,40.06858],[-75.30059,40.06854],[-75.28627,40.07234],[-75.28415,40.07229],[-75.28137,40.07128],[-75.27959,40.06985],[-75.2713,40.05911],[-75.26078,40.04876],[-75.24982,40.04078],[-75.24189,40.03357]],[[-75.25078,40.04148],[-75.26074,40.04879],[-75.27114,40.05901],[-75.27955,40.06988],[-75.2818,40.07155],[-75.28627,40.07238],[-75.30059,40.06857],[-75.30717,40.06861],[-75.31057,40.06957],[-75.31651,40.07385],[-75.31949,40.0769],[-75.32124,40.08017],[-75.3228,40.09179],[-75.32515,40.1008],[-75.32701,40.10364],[-75.32957,40.10502],[-75.34829,40.10691],[-75.35951,40.11132],[-75.37598,40.11483],[-75.39345,40.11573],[-75.39877,40.11487],[-75.4074,40.1103],[-75.41964,40.10671],[-75.44075,40.10781],[-75.44959,40.1066],[-75.46035,40.10253],[-75.46307,40.10249],[-75.46574,40.10341],[-75.4698,40.10681],[-75.47246,40.11142],[-75.47264,40.11423],[-75.47084,40.11885],[-75.47132,40.1208],[-75.47288,40.12264],[-75.47558,40.12391],[-75.47952,40.12446],[-75.48853,40.1238],[-75.49159,40.12409],[-75.5004,40.12798],[-75.51062,40.13542],[-75.51173,40.13846],[-75.51183,40.14265],[-75.51274,40.14408],[-75.52013,40.14871],[-75.52575,40.15047],[-75.52668,40.15323],[-75.52341,40.15886],[-75.52282,40.16188],[-75.52347,40.16475],[-75.52803,40.17087],[-75.53816,40.17764],[-75.54212,40.18157],[-75.5568,40.20811],[-75.55951,40.20996],[-75.56381,40.21063],[-75.57479,40.20649],[-75.57712,40.20638],[-75.57961,40.20726],[-75.58104,40.20884],[-75.58433,40.21648],[-75.59152,40.22507],[-75.59485,40.23556],[-75.59755,40.23778],[-75.60224,40.23856],[-75.62537,40.23745],[-75.64231,40.24337],[-75.65348,40.24513],[-75.66819,40.24921],[-75.67299,40.24874],[-75.68206,40.24511],[-75.6869,40.24483],[-75.72665,40.25508],[-75.73109,40.25767],[-75.73554,40.26159],[-75.73845,40.26261],[-75.74259,40.26296],[-75.77077,40.26107],[-75.7737,40.26201],[-75.78387,40.26951],[-75.78724,40.27104],[-75.79466,40.27216],[-75.80776,40.2705],[-75.81192,40.27052],[-75.82359,40.27413]],[[-75.53127,40.17311],[-75.53881,40.17809],[-75.54216,40.18155],[-75.55498,40.20537],[-75.558,40.2092],[-75.56143,40.2104],[-75.56474,40.21049],[-75.57597,40.2063],[-75.57857,40.2067],[-75.58053,40.20801],[-75.58321,40.21469],[-75.58609,40.21897],[-75.5916,40.22512],[-75.59508,40.23588],[-75.59756,40.23775],[-75.60224,40.23853],[-75.62537,40.23742],[-75.64261,40.24341],[-75.65355,40.24511],[-75.66819,40.24917],[-75.67298,40.24871],[-75.68264,40.24494],[-75.68728,40.24484],[-75.72666,40.25505],[-75.73137,40.25783],[-75.73557,40.26157],[-75.73847,40.26258],[-75.74259,40.26293],[-75.77078,40.26104],[-75.77373,40.26198],[-75.78462,40.26996],[-75.78774,40.27113],[-75.79517,40.27212],[-75.81034,40.27041],[-75.81637,40.27154]]]}},{"type":"Feature","properties":{"k":1,"n":"Trenton Subdivision"},"geometry":{"type":"MultiLineString","coordinates":[[[-75.16587,40.01205],[-75.15973,40.01537],[-75.15942,40.01665],[-75.16088,40.02046],[-75.15756,40.02422],[-75.1401,40.03337],[-75.13716,40.03354],[-75.12632,40.03223],[-75.12332,40.03289],[-75.11213,40.04106],[-75.10691,40.04902],[-75.09515,40.056],[-75.08616,40.06236],[-75.08235,40.06417],[-75.06889,40.06859],[-75.06076,40.07275],[-74.96531,40.14515],[-74.96084,40.14712],[-74.93545,40.15505],[-74.91522,40.15979],[-74.90585,40.16393],[-74.89915,40.17172],[-74.89315,40.18735],[-74.88982,40.19189],[-74.85843,40.21697],[-74.82545,40.23917],[-74.80149,40.28279],[-74.79901,40.29959],[-74.80109,40.28349],[-74.81117,40.26499]],[[-74.79901,40.29959],[-74.79603,40.32773],[-74.79398,40.33437],[-74.78554,40.37772],[-74.78432,40.3802],[-74.78035,40.38318],[-74.72035,40.41304],[-74.68801,40.44297]],[[-74.96781,40.14344],[-75.00069,40.11842]]]}},{"type":"Feature","properties":{"k":1,"n":"Norristown Line"},"geometry":{"type":"MultiLineString","coordinates":[[[-75.33577,40.10966],[-75.32633,40.10591],[-75.32121,40.10062],[-75.32018,40.09795],[-75.32054,40.09145],[-75.31805,40.0805],[-75.31494,40.07614],[-75.31046,40.07295],[-75.30744,40.07173],[-75.30429,40.07141],[-75.28651,40.07418],[-75.28355,40.07415],[-75.28085,40.07335],[-75.27834,40.07148],[-75.27364,40.06496],[-75.26741,40.05959],[-75.26296,40.05422],[-75.24748,40.04242],[-75.24472,40.03866],[-75.23683,40.03519],[-75.22896,40.02834],[-75.22073,40.02493],[-75.2116,40.0172],[-75.16532,40.0038],[-75.16046,40.00093],[-75.1574,39.99749]],[[-75.36082,40.11168],[-75.35661,40.11091],[-75.35147,40.11226],[-75.34946,40.11622],[-75.34525,40.12075]],[[-75.33956,40.11107],[-75.34612,40.11319],[-75.35274,40.11178]],[[-75.15774,39.99793],[-75.16042,40.00094],[-75.1653,40.00383],[-75.21156,40.01722],[-75.22074,40.02499],[-75.22885,40.02832],[-75.23683,40.03524],[-75.24468,40.03868],[-75.24744,40.04244],[-75.26299,40.0543],[-75.26714,40.05938],[-75.27364,40.06503],[-75.27841,40.07162],[-75.28093,40.07343],[-75.28348,40.07418],[-75.28645,40.07421],[-75.30436,40.07145],[-75.30737,40.07176],[-75.31027,40.07288],[-75.31521,40.07646],[-75.31801,40.08051],[-75.32052,40.09158],[-75.32018,40.09819],[-75.32171,40.1013],[-75.32692,40.10629],[-75.34473,40.11294],[-75.34923,40.11317],[-75.35003,40.1139],[-75.35001,40.11509]]]}},{"type":"Feature","properties":{"k":1,"n":"West Chester Line"},"geometry":{"type":"MultiLineString","coordinates":[[[-75.17907,39.95596],[-75.18432,39.95692],[-75.18602,39.95674],[-75.18692,39.95593],[-75.1884,39.94988],[-75.19134,39.94713],[-75.19551,39.94552],[-75.20281,39.94476],[-75.20821,39.94273],[-75.21186,39.94264],[-75.22759,39.94613],[-75.23258,39.94631],[-75.23824,39.94497],[-75.24629,39.94123],[-75.27649,39.93645],[-75.29417,39.92396],[-75.31965,39.91073],[-75.32339,39.90933],[-75.35086,39.90236],[-75.35411,39.90213],[-75.35878,39.90299],[-75.37241,39.9038],[-75.38261,39.90368],[-75.3864,39.90492],[-75.3889,39.90648],[-75.3914,39.91132],[-75.3939,39.91383],[-75.39896,39.91544],[-75.40489,39.91381],[-75.41076,39.90821],[-75.41463,39.90571],[-75.42137,39.90397],[-75.42793,39.89981],[-75.44366,39.89401],[-75.44633,39.89378],[-75.44904,39.89443],[-75.45622,39.89963],[-75.4604,39.90149]],[[-75.17967,39.95612],[-75.18496,39.95688],[-75.18645,39.95644],[-75.18839,39.94974],[-75.19171,39.94684],[-75.19589,39.9454],[-75.2028,39.94473],[-75.20821,39.94269],[-75.21186,39.9426],[-75.22769,39.94611],[-75.23243,39.94629],[-75.23798,39.94504],[-75.24626,39.9412],[-75.2764,39.93645],[-75.29412,39.92393],[-75.31961,39.91069],[-75.32337,39.9093],[-75.35085,39.90232],[-75.35411,39.90209],[-75.35879,39.90295],[-75.37242,39.90377],[-75.38262,39.90365],[-75.38857,39.90617],[-75.3925,39.91263],[-75.39544,39.9146],[-75.39839,39.91531],[-75.40078,39.91519],[-75.40486,39.91378],[-75.41285,39.9067]],[[-75.60065,39.96126],[-75.59807,39.95875],[-75.58194,39.95122],[-75.57315,39.9425],[-75.55911,39.93881],[-75.54814,39.93151],[-75.54554,39.93082],[-75.53736,39.93021],[-75.53235,39.9284],[-75.52886,39.92785],[-75.52478,39.92824],[-75.51864,39.93077],[-75.51524,39.93156],[-75.49866,39.92969],[-75.49591,39.9283],[-75.49371,39.92565],[-75.49148,39.92108],[-75.48787,39.91752],[-75.48606,39.91668]],[[-75.45171,39.89621],[-75.45851,39.90058]]]}},{"type":"Feature","properties":{"k":3,"n":"Media Line"},"geometry":{"type":"MultiLineString","coordinates":[[[-75.39387,39.91854],[-75.37627,39.91607],[-75.37146,39.91492],[-75.36176,39.91608],[-75.35552,39.91546],[-75.35007,39.91734],[-75.3443,39.92207],[-75.33245,39.92952],[-75.33062,39.93178],[-75.32696,39.9396],[-75.31963,39.946],[-75.30411,39.94957],[-75.30096,39.94914],[-75.29602,39.94677],[-75.29298,39.94691]],[[-75.293,39.94694],[-75.29601,39.9468],[-75.30094,39.94917],[-75.30411,39.9496],[-75.31965,39.94603],[-75.327,39.93962],[-75.3317,39.93031],[-75.33883,39.9253]],[[-75.3635,39.91588],[-75.37105,39.91493],[-75.38008,39.91663]]]}},{"type":"Feature","properties":{"k":1,"n":"Main Line"},"geometry":{"type":"MultiLineString","coordinates":[[[-75.14943,39.98216],[-75.15124,39.98796],[-75.15875,39.99985],[-75.16171,40.00933],[-75.16174,40.01916],[-75.16093,40.02117],[-75.15797,40.0242],[-75.13886,40.03435],[-75.13643,40.03649],[-75.1349,40.03995],[-75.1344,40.05051],[-75.1268,40.06367],[-75.12659,40.06665],[-75.12869,40.07515],[-75.13327,40.08286],[-75.13821,40.0943],[-75.13994,40.09641],[-75.14238,40.098],[-75.15501,40.10176],[-75.15795,40.10312],[-75.17089,40.11285],[-75.19901,40.12453],[-75.2015,40.12651],[-75.20515,40.13159],[-75.2137,40.13681],[-75.22673,40.15625],[-75.2395,40.16462],[-75.27282,40.20369],[-75.27604,40.21018],[-75.28537,40.2434]],[[-75.2848,40.24093],[-75.2761,40.2102],[-75.27286,40.20368],[-75.2397,40.16476],[-75.22677,40.15623],[-75.21402,40.13706],[-75.20518,40.13156],[-75.20154,40.12649],[-75.19904,40.1245],[-75.17024,40.11247],[-75.15631,40.10223],[-75.14365,40.09846],[-75.14074,40.097],[-75.13828,40.0943],[-75.13327,40.08273],[-75.12878,40.07519],[-75.12666,40.06676],[-75.12668,40.06432],[-75.13446,40.05048],[-75.13485,40.04072],[-75.13595,40.03725],[-75.13881,40.03443],[-75.15821,40.02409],[-75.16174,40.0197],[-75.16182,40.00938],[-75.15883,39.99983],[-75.15128,39.98795],[-75.1494,39.98294],[-75.15032,39.97366],[-75.15401,39.95294],[-75.15536,39.95222],[-75.16271,39.95335]],[[-75.17246,39.95487],[-75.18499,39.95732],[-75.18664,39.96402],[-75.18934,39.96654]],[[-75.15385,39.95305],[-75.1548,39.95219],[-75.15665,39.95228],[-75.18625,39.95687],[-75.18737,39.9582],[-75.1869,39.9635],[-75.18855,39.96602]],[[-75.16195,40.01388],[-75.16182,40.00909],[-75.15881,39.99964],[-75.15156,39.98835],[-75.14951,39.98341],[-75.15037,39.97366],[-75.1542,39.95272],[-75.15552,39.95228],[-75.17727,39.95554],[-75.18455,39.95717],[-75.18557,39.95812],[-75.18648,39.96375],[-75.18789,39.96577],[-75.18928,39.96667],[-75.19589,39.96847]],[[-75.1979,39.96895],[-75.18984,39.96667],[-75.18787,39.96534],[-75.18685,39.96303],[-75.18742,39.95819],[-75.18674,39.95707],[-75.17909,39.95592]],[[-75.17907,39.95596],[-75.17393,39.95502]],[[-75.16186,40.01241],[-75.16168,40.01975],[-75.15797,40.0242]],[[-75.16195,40.01394],[-75.16195,40.01948],[-75.16068,40.02166]],[[-75.15764,39.99793],[-75.16152,40.00827],[-75.16186,40.01201]],[[-75.15383,39.95315],[-75.15025,39.97349],[-75.14928,39.98306],[-75.15143,39.9884],[-75.15712,39.99732]],[[-75.16272,39.95331],[-75.15537,39.95217],[-75.15395,39.95292],[-75.15249,39.95928],[-75.14943,39.98213]],[[-75.16334,39.95343],[-75.17175,39.95479]],[[-75.17241,39.95482],[-75.16335,39.95338]]]}},{"type":"Feature","properties":{"k":3,"n":"Sharon Hill Line"},"geometry":{"type":"MultiLineString","coordinates":[[[-75.27807,39.90651],[-75.29045,39.92412],[-75.29013,39.92589],[-75.29262,39.92729],[-75.29182,39.92992],[-75.29494,39.93316],[-75.29672,39.94161],[-75.29535,39.94544],[-75.29298,39.94691]],[[-75.293,39.94694],[-75.29539,39.94545],[-75.29677,39.94161],[-75.29512,39.93354],[-75.29186,39.92991],[-75.29266,39.92728],[-75.29022,39.92592],[-75.2905,39.9241],[-75.28577,39.91793]]]}},{"type":"Feature","properties":{"k":1,"n":"Chester Secondary"},"geometry":{"type":"MultiLineString","coordinates":[[[-75.32614,39.86224],[-75.31742,39.86476],[-75.29466,39.86601],[-75.28684,39.86775],[-75.25818,39.87825],[-75.25545,39.88016],[-75.25078,39.88525]],[[-75.21052,39.93434],[-75.21239,39.93337],[-75.2195,39.9229]]]}},{"type":"Feature","properties":{"k":3},"geometry":{"type":"MultiLineString","coordinates":[[[-75.1781,39.97252],[-75.1709,39.97294],[-75.13477,39.9687],[-75.12105,39.97337],[-75.11949,39.97297],[-75.09921,39.98424],[-75.1196,39.97311],[-75.12102,39.9734],[-75.13484,39.96872],[-75.17091,39.97297],[-75.1781,39.97252],[-75.17911,39.9727],[-75.17882,39.97394],[-75.17788,39.9738],[-75.17788,39.97274]],[[-75.20203,39.95791],[-75.20509,39.9582],[-75.20554,39.96514],[-75.21788,39.97273],[-75.20623,39.97393],[-75.20645,39.97518],[-75.2043,39.9739],[-75.2179,39.97269],[-75.20572,39.96525],[-75.20576,39.9692],[-75.20347,39.96943]],[[-75.20185,39.95803],[-75.20247,39.9632],[-75.19381,39.95864],[-75.19426,39.95561],[-75.19176,39.95513],[-75.19425,39.95536],[-75.19538,39.9516],[-75.20354,39.94927],[-75.20357,39.94968],[-75.20526,39.94841],[-75.21171,39.94206],[-75.21249,39.94082],[-75.21033,39.93847],[-75.21385,39.93592],[-75.21674,39.93176],[-75.24326,39.91312],[-75.23975,39.90172],[-75.23946,39.89862],[-75.23969,39.90169],[-75.24325,39.91298],[-75.24196,39.91401]],[[-75.24647,39.98373],[-75.24576,39.98395],[-75.24711,39.98358],[-75.24551,39.97536],[-75.22713,39.97735],[-75.2179,39.97269]],[[-75.20455,39.97448],[-75.19124,39.97554],[-75.17888,39.97384]],[[-75.26249,39.91883],[-75.26197,39.9193],[-75.26254,39.91893],[-75.26196,39.91844],[-75.25842,39.91838],[-75.24972,39.91643],[-75.24694,39.91685],[-75.21246,39.94097]],[[-75.25228,39.92503],[-75.25594,39.92298],[-75.25685,39.92376],[-75.25987,39.92235],[-75.26315,39.92001],[-75.26252,39.91888]],[[-75.25223,39.92492],[-75.24588,39.92661],[-75.24439,39.92967],[-75.23821,39.92886],[-75.23699,39.9279],[-75.23524,39.92908],[-75.23582,39.92921],[-75.23525,39.92902],[-75.23697,39.92787],[-75.23821,39.92882],[-75.24438,39.92963],[-75.24586,39.92659],[-75.25225,39.92495]],[[-75.24592,39.94391],[-75.24659,39.94382],[-75.23187,39.94779],[-75.22477,39.94781],[-75.20718,39.94996],[-75.2072,39.94851],[-75.21072,39.94829],[-75.23145,39.93373],[-75.23039,39.93249],[-75.23524,39.92908]],[[-75.24234,39.91378],[-75.2169,39.93168],[-75.21393,39.9359],[-75.21038,39.93896],[-75.21247,39.941],[-75.24699,39.91688],[-75.24971,39.91646],[-75.25841,39.91842],[-75.2602,39.91812],[-75.26225,39.91861],[-75.25895,39.92161],[-75.25603,39.92262],[-75.25272,39.92469]],[[-75.23525,39.92902],[-75.2303,39.93253],[-75.2314,39.9337],[-75.21069,39.94827],[-75.20711,39.9485],[-75.20714,39.94992],[-75.22476,39.94778],[-75.23187,39.94777],[-75.24659,39.94382]],[[-75.2071,39.94869],[-75.20705,39.94684],[-75.21061,39.94369],[-75.21247,39.941]],[[-75.20184,39.95774],[-75.20305,39.95182],[-75.19923,39.95128],[-75.19787,39.95732],[-75.20163,39.95786]],[[-75.20318,39.9496],[-75.1954,39.95163],[-75.19428,39.95545],[-75.19175,39.95516],[-75.19422,39.95565],[-75.19372,39.95863],[-75.2026,39.96332],[-75.2043,39.9739]],[[-75.20369,39.96947],[-75.20401,39.97415]],[[-75.21788,39.97273],[-75.21851,39.97302],[-75.22597,39.97144],[-75.23921,39.96997],[-75.24179,39.97149],[-75.24479,39.97185],[-75.24516,39.97048],[-75.23903,39.96995],[-75.22597,39.97141],[-75.2183,39.97294]],[[-75.17865,39.97397],[-75.19125,39.97557],[-75.20426,39.97391]],[[-75.13471,39.96871],[-75.1343,39.96482],[-75.13468,39.96875]],[[-75.19176,39.95513],[-75.18973,39.95486],[-75.18856,39.95544],[-75.16499,39.95249],[-75.1632,39.9516],[-75.1625,39.95268],[-75.16374,39.95336],[-75.16523,39.95265],[-75.18862,39.95556],[-75.18978,39.95489],[-75.19175,39.95516]],[[-75.22968,39.97709],[-75.23002,39.97871],[-75.22704,39.97736],[-75.24547,39.97539],[-75.24706,39.98356],[-75.24584,39.98405]],[[-75.20714,39.94992],[-75.20686,39.95218],[-75.2029,39.95171]],[[-75.20305,39.95193],[-75.20688,39.95221],[-75.20718,39.94996]],[[-75.21829,39.97298],[-75.22704,39.97736]]]}},{"type":"Feature","properties":{"k":1,"n":"Fox Chase Line"},"geometry":{"type":"MultiLineString","coordinates":[[[-75.14206,40.03259],[-75.1383,40.03363],[-75.12573,40.03229],[-75.1218,40.0339],[-75.1122,40.0411],[-75.10724,40.04887],[-75.09415,40.05673],[-75.08667,40.0637],[-75.08495,40.06674],[-75.08386,40.07373]]]}},{"type":"Feature","properties":{"k":1,"n":"Chestnut Hill West Line"},"geometry":{"type":"MultiLineString","coordinates":[[[-75.20812,40.07665],[-75.21148,40.07282],[-75.21078,40.06972],[-75.19883,40.06257],[-75.19472,40.05718],[-75.19165,40.05101],[-75.19003,40.04143],[-75.18851,40.03747],[-75.1851,40.03302],[-75.17894,40.02859],[-75.17796,40.02723],[-75.1784,40.02046],[-75.17775,40.01839],[-75.16494,40.00423],[-75.15675,39.99886],[-75.15651,39.99738],[-75.15838,39.99606]],[[-75.1578,39.99629],[-75.15643,39.99743],[-75.15666,39.99882],[-75.16493,40.00429],[-75.17769,40.01838],[-75.17836,40.0205],[-75.17798,40.02737],[-75.18493,40.03292],[-75.18836,40.0373],[-75.18986,40.041],[-75.19231,40.053],[-75.19781,40.06154],[-75.21081,40.06984],[-75.21138,40.07298],[-75.20809,40.07662]]]}},{"type":"Feature","properties":{"k":1,"n":"Chestnut Hill East Line"},"geometry":{"type":"MultiLineString","coordinates":[[[-75.20784,40.08103],[-75.20613,40.08091],[-75.20438,40.07989],[-75.19642,40.07316],[-75.19072,40.06499],[-75.17848,40.06039],[-75.1761,40.05839],[-75.17464,40.05419],[-75.1715,40.05098],[-75.16958,40.04631],[-75.16974,40.04296],[-75.17215,40.03886],[-75.17162,40.03747],[-75.15921,40.03594],[-75.15753,40.035],[-75.15731,40.0294],[-75.15907,40.02388],[-75.16161,40.02053],[-75.15902,40.02387],[-75.15729,40.02929],[-75.15749,40.03503],[-75.15912,40.03597],[-75.17034,40.03701],[-75.17165,40.03756],[-75.17209,40.03888],[-75.16964,40.04308],[-75.16953,40.04632],[-75.17137,40.05085],[-75.1746,40.05423],[-75.17606,40.05841],[-75.17847,40.06043],[-75.19083,40.06512],[-75.19654,40.07333],[-75.20434,40.07992],[-75.2061,40.08094],[-75.20784,40.08107]]]}},{"type":"Feature","properties":{"k":1,"n":"Philadelphia Subdivision (Arsenal Connecting Track)"},"geometry":{"type":"MultiLineString","coordinates":[[[-75.192,39.9464],[-75.1951,39.94512],[-75.20084,39.94487],[-75.20399,39.94408],[-75.2157,39.93566]]]}},{"type":"Feature","properties":{"k":1,"n":"Philadelphia Subdivision (58th Street Connecting Track)"},"geometry":{"type":"MultiLineString","coordinates":[[[-75.1978,39.94495],[-75.20237,39.94458],[-75.20543,39.94322],[-75.20729,39.94139],[-75.21131,39.93495],[-75.21351,39.93367]]]}},{"type":"Feature","properties":{"k":1,"n":"Delair Branch"},"geometry":{"type":"MultiLineString","coordinates":[[[-75.1872,39.98002],[-75.1782,39.98653],[-75.16357,39.99394],[-75.13482,40.00466],[-75.13143,40.00512],[-75.12303,40.00465],[-75.10262,40.00202],[-75.08912,39.99945],[-75.08463,39.99675],[-75.07543,39.98691],[-75.06385,39.97911]]]}},{"type":"Feature","properties":{"k":1,"n":"Airport Line"},"geometry":{"type":"MultiLineString","coordinates":[[[-75.24827,39.87566],[-75.25253,39.87485],[-75.25453,39.8751],[-75.25641,39.87666],[-75.25638,39.87875],[-75.22812,39.91043],[-75.21918,39.9235],[-75.21936,39.92485],[-75.22093,39.92575],[-75.21935,39.92471],[-75.21932,39.92337],[-75.2283,39.91026],[-75.25646,39.87874],[-75.2565,39.87668],[-75.25472,39.87511],[-75.25255,39.8748],[-75.24825,39.8756]],[[-75.21995,39.93267],[-75.22354,39.92992],[-75.22331,39.92726],[-75.22472,39.92872],[-75.22463,39.9299],[-75.2207,39.93235]]]}},{"type":"Feature","properties":{"k":1,"n":"Wood Connecting Track"},"geometry":{"type":"MultiLineString","coordinates":[[[-74.89452,40.19388],[-74.88858,40.19349],[-74.88431,40.19648]]]}},{"type":"Feature","properties":{"k":1,"n":"New Hope Railroad"},"geometry":{"type":"MultiLineString","coordinates":[[[-75.07617,40.20819],[-75.08544,40.19885]],[[-74.95539,40.37077],[-74.95333,40.3643],[-74.95385,40.36301],[-74.95874,40.3617],[-74.96218,40.36176],[-74.9682,40.35867],[-74.97213,40.35526],[-74.97939,40.35424],[-74.98882,40.34616],[-74.99284,40.34357],[-74.99808,40.34363],[-75.00207,40.34501],[-75.00529,40.34405],[-75.01585,40.33615],[-75.02943,40.33031],[-75.03698,40.32368],[-75.04874,40.31897],[-75.0524,40.31555],[-75.0527,40.31225],[-75.04808,40.30836],[-75.04625,40.30488],[-75.04385,40.30262],[-75.04279,40.29791],[-75.04164,40.29597],[-75.03097,40.28987],[-75.02214,40.28718],[-75.01904,40.28087],[-75.01873,40.27884],[-75.01988,40.27742],[-75.02336,40.27564],[-75.02641,40.2708],[-75.02645,40.26955],[-75.02498,40.2671],[-75.02566,40.26276],[-75.03475,40.25257],[-75.03414,40.24928],[-75.0346,40.24815],[-75.04017,40.24623],[-75.04307,40.24278],[-75.04924,40.2413],[-75.0516,40.23728],[-75.05998,40.23458],[-75.06644,40.22968],[-75.06731,40.22808],[-75.06781,40.21687],[-75.07558,40.20878]]]}},{"type":"Feature","properties":{"k":1,"n":"Morrisville Line"},"geometry":{"type":"MultiLineString","coordinates":[[[-74.86019,40.1898],[-74.87464,40.18906],[-74.87942,40.18995],[-74.88767,40.19266],[-74.87871,40.18983],[-74.87473,40.18914],[-74.86021,40.18987]],[[-75.30281,40.10588],[-75.24276,40.1089],[-75.23932,40.10956],[-75.20542,40.12889],[-75.19889,40.13084],[-75.18385,40.13271],[-75.16388,40.13982],[-75.15768,40.14261],[-75.14075,40.15294],[-75.12114,40.15993],[-75.11645,40.16053],[-75.041,40.16059],[-75.02124,40.15791],[-75.017,40.15799],[-75.0131,40.15896],[-75.0025,40.16368],[-74.99254,40.16643],[-74.98422,40.17019],[-74.96915,40.17453],[-74.96534,40.17507],[-74.95458,40.17488],[-74.95017,40.17547],[-74.93169,40.18065],[-74.89947,40.19305],[-74.89335,40.19387],[-74.88767,40.19266]],[[-75.26867,40.1076],[-75.30245,40.1059]],[[-74.77373,40.2033],[-74.78094,40.19685],[-74.78508,40.19573]],[[-74.78298,40.19589],[-74.77994,40.19753],[-74.77371,40.20322]]]}},{"type":"Feature","properties":{"k":1,"n":"Warminster Line"},"geometry":{"type":"MultiLineString","coordinates":[[[-75.09276,40.19145],[-75.08758,40.19672],[-75.09549,40.18855],[-75.10243,40.17667],[-75.10491,40.16554],[-75.10763,40.16029],[-75.10604,40.15245],[-75.11381,40.14465],[-75.12015,40.12988],[-75.12191,40.12824],[-75.12852,40.12521],[-75.13356,40.12113],[-75.1512,40.11627],[-75.15282,40.1147],[-75.15479,40.11072],[-75.15913,40.10697],[-75.1592,40.10466],[-75.15731,40.10276]],[[-75.14288,40.11873],[-75.14969,40.11706],[-75.15237,40.11532],[-75.15484,40.11072],[-75.15927,40.10678],[-75.15918,40.10451],[-75.15733,40.10273]]]}},{"type":"Feature","properties":{"k":1,"n":"Doylestown Line"},"geometry":{"type":"MultiLineString","coordinates":[[[-75.13294,40.30402],[-75.13855,40.30049],[-75.13466,40.30261],[-75.13218,40.30479]],[[-75.28537,40.2434],[-75.28503,40.24476],[-75.28218,40.2478],[-75.2351,40.28244],[-75.22268,40.28825],[-75.21877,40.289],[-75.21069,40.28774],[-75.20707,40.28796],[-75.18014,40.29734],[-75.17012,40.29928],[-75.16565,40.29882],[-75.15628,40.29532],[-75.15031,40.29527],[-75.1462,40.29649],[-75.13855,40.30049]],[[-75.28473,40.24086],[-75.28478,40.24367],[-75.2836,40.24631]]]}},{"type":"Feature","properties":{"k":1,"n":"Morrisville Connecting Track"},"geometry":{"type":"MultiLineString","coordinates":[[[-75.30281,40.10588],[-75.31756,40.10282],[-75.31968,40.10341],[-75.32377,40.10598],[-75.3373,40.11027]]]}},{"type":"Feature","properties":{"k":1,"n":"Trenton Subdivision (Fairless Branch)"},"geometry":{"type":"MultiLineString","coordinates":[[[-74.89749,40.17588],[-74.89253,40.18788],[-74.89029,40.18982],[-74.88388,40.19049],[-74.87242,40.18875],[-74.85852,40.18993]]]}},{"type":"Feature","properties":{"k":1,"n":"Perkiomen Branch"},"geometry":{"type":"MultiLineString","coordinates":[[[-75.50811,40.47765],[-75.50976,40.47618],[-75.50949,40.47429],[-75.50408,40.4716],[-75.50253,40.46987],[-75.50283,40.46689],[-75.5045,40.46453],[-75.50491,40.46108],[-75.51164,40.45766],[-75.51736,40.4565],[-75.52113,40.45317],[-75.5262,40.45096],[-75.52823,40.44903],[-75.53326,40.44799],[-75.53491,40.44645],[-75.53311,40.43881],[-75.5336,40.43005],[-75.53166,40.42776],[-75.5272,40.4263]]]}},{"type":"Feature","properties":{"k":1,"n":"Octoraro Line"},"geometry":{"type":"MultiLineString","coordinates":[[[-75.70685,39.84294],[-75.69256,39.84665],[-75.68997,39.84634],[-75.68636,39.8442],[-75.68464,39.84381],[-75.66492,39.84721]],[[-75.6647,39.84725],[-75.6454,39.85071],[-75.64024,39.8544],[-75.63237,39.85713],[-75.62891,39.85895],[-75.62199,39.86],[-75.60763,39.86422],[-75.60174,39.86722],[-75.59699,39.86866],[-75.5961,39.87007]],[[-75.78321,39.82353],[-75.78016,39.82263],[-75.7768,39.8229],[-75.74346,39.83585]],[[-75.78341,39.82364],[-75.78697,39.82746]],[[-75.79324,39.8308],[-75.79758,39.83147],[-75.80188,39.83127]],[[-75.70702,39.8429],[-75.72459,39.83981]],[[-75.74341,39.83588],[-75.73805,39.83763],[-75.72481,39.83977]]]}},{"type":"Feature","properties":{"k":1,"n":"Eastern Berks Gateway Railroad"},"geometry":{"type":"MultiLineString","coordinates":[[[-75.65872,40.24727],[-75.65844,40.25453],[-75.66191,40.26288],[-75.66263,40.26712],[-75.6651,40.26792],[-75.66947,40.26625],[-75.67122,40.26614],[-75.67713,40.26853],[-75.68092,40.27233],[-75.68196,40.27585],[-75.68536,40.27912],[-75.68614,40.28124],[-75.68024,40.29488],[-75.67563,40.297],[-75.67018,40.30314],[-75.66392,40.30315],[-75.66217,40.30374],[-75.65965,40.30906],[-75.65478,40.31262],[-75.65383,40.31921],[-75.64731,40.32492]]]}},{"type":"Feature","properties":{"k":1,"n":"Dale Secondary"},"geometry":{"type":"MultiLineString","coordinates":[[[-75.32252,40.10386],[-75.33918,40.09755],[-75.34764,40.08995],[-75.35287,40.08723],[-75.35746,40.08622],[-75.38304,40.08387],[-75.42128,40.06924]],[[-75.42146,40.06917],[-75.43411,40.06458],[-75.47209,40.05413],[-75.48861,40.05176],[-75.51472,40.04509],[-75.54058,40.04007],[-75.55392,40.03689],[-75.56591,40.03504],[-75.57536,40.03161],[-75.58362,40.02984]],[[-75.30281,40.10588],[-75.31567,40.10525],[-75.32116,40.10427]]]}},{"type":"Feature","properties":{"k":1,"n":"Allentown and Auburn"},"geometry":{"type":"MultiLineString","coordinates":[[[-75.7799,40.52446],[-75.77484,40.52086],[-75.76586,40.51808],[-75.76246,40.51799],[-75.74771,40.51973],[-75.74239,40.51922],[-75.73872,40.51781],[-75.71756,40.50565],[-75.7132,40.50457],[-75.70641,40.50427]]]}},{"type":"Feature","properties":{"k":1,"n":"Wilmington and Western Railroad"},"geometry":{"type":"MultiLineString","coordinates":[[[-75.69815,39.78703],[-75.68941,39.78903],[-75.68185,39.794],[-75.67691,39.79946],[-75.6729,39.80718],[-75.67156,39.80824],[-75.66778,39.80793],[-75.65903,39.80025],[-75.65725,39.80009],[-75.65345,39.80135],[-75.65119,39.80056],[-75.64954,39.79819],[-75.64686,39.79641],[-75.64555,39.79386],[-75.64357,39.79263],[-75.64357,39.78981],[-75.64053,39.78764],[-75.63991,39.78461],[-75.63835,39.78212],[-75.63844,39.78058],[-75.64156,39.7743],[-75.64101,39.77306],[-75.63814,39.77133],[-75.63663,39.76809],[-75.63797,39.76333],[-75.63482,39.75986],[-75.63385,39.75518],[-75.63184,39.7515],[-75.63216,39.7502],[-75.63618,39.74748],[-75.63691,39.74609],[-75.63646,39.74464],[-75.63356,39.74249],[-75.63171,39.74014],[-75.63289,39.73731],[-75.63362,39.73211],[-75.63253,39.73078],[-75.63078,39.73011],[-75.62223,39.73008]]]}},{"type":"Feature","properties":{"k":1,"n":"Shellpot Secondary"},"geometry":{"type":"MultiLineString","coordinates":[[[-75.52422,39.73637],[-75.52813,39.73105],[-75.53503,39.72813],[-75.54106,39.7267],[-75.57536,39.72149],[-75.59201,39.71606]],[[-75.5134,39.74858],[-75.50835,39.752],[-75.49791,39.75379],[-75.49267,39.75582],[-75.48909,39.7591],[-75.48558,39.76567]]]}},{"type":"Feature","properties":{"k":2,"n":"Norristown High Speed Line"},"geometry":{"type":"MultiLineString","coordinates":[[[-75.25914,39.96274],[-75.27629,39.96982],[-75.28283,39.97617],[-75.28409,39.98139],[-75.28581,39.98383],[-75.2878,39.98524],[-75.29182,39.98677],[-75.29816,39.99338],[-75.30849,39.99884],[-75.31527,40.01002],[-75.3213,40.01531],[-75.32387,40.01855],[-75.3294,40.0206],[-75.34149,40.03333],[-75.35045,40.03492],[-75.35212,40.0361],[-75.35358,40.04208],[-75.35334,40.0439],[-75.34932,40.04667],[-75.34644,40.05107],[-75.3408,40.05408],[-75.33951,40.05617],[-75.33948,40.06075],[-75.34224,40.06595],[-75.34182,40.06991],[-75.34571,40.0769],[-75.352,40.08552],[-75.35296,40.08818],[-75.3519,40.09973],[-75.34725,40.10643],[-75.34623,40.11195],[-75.34517,40.11343]],[[-75.34878,40.10394],[-75.35194,40.09973],[-75.35296,40.08776],[-75.34188,40.06992],[-75.3423,40.06594],[-75.33953,40.06074],[-75.33952,40.05685],[-75.34054,40.05435],[-75.34607,40.05143],[-75.34926,40.0468],[-75.35328,40.04413],[-75.35366,40.04224],[-75.3521,40.03595],[-75.35032,40.03485],[-75.34153,40.0333],[-75.32943,40.02058],[-75.32403,40.01858],[-75.32134,40.01529],[-75.31532,40.01],[-75.30853,39.99882],[-75.29942,39.99409],[-75.29579,39.99142],[-75.29185,39.98675],[-75.28585,39.98381],[-75.28414,39.98138],[-75.28287,39.97615],[-75.27632,39.9698],[-75.25915,39.96267]]]}},{"type":"Feature","properties":{"k":1,"n":"Wilmington and Northern Branch"},"geometry":{"type":"MultiLineString","coordinates":[[[-75.80434,39.96846],[-75.80375,39.96504],[-75.80247,39.96353],[-75.79724,39.9625],[-75.79472,39.96092],[-75.79091,39.95998],[-75.78524,39.9557],[-75.78203,39.95529],[-75.78044,39.95443],[-75.77984,39.95307],[-75.78028,39.94712],[-75.77921,39.94586],[-75.77608,39.9447],[-75.77604,39.93947],[-75.77204,39.93677],[-75.76532,39.93668],[-75.76141,39.93589],[-75.75714,39.93725],[-75.75292,39.93757],[-75.75086,39.93653],[-75.74855,39.9336],[-75.74417,39.93275],[-75.73675,39.92935],[-75.72385,39.93254],[-75.72045,39.93423],[-75.71894,39.93435],[-75.71288,39.92752],[-75.70417,39.92176],[-75.69808,39.91962],[-75.69054,39.91976],[-75.68702,39.92107],[-75.68324,39.92407],[-75.68209,39.9261],[-75.6764,39.93155],[-75.67363,39.9324],[-75.67213,39.93168],[-75.67019,39.92798],[-75.66831,39.92684],[-75.66124,39.92484],[-75.65056,39.92283],[-75.64576,39.91954],[-75.64125,39.91798],[-75.63701,39.91485],[-75.6324,39.91427],[-75.63119,39.91362],[-75.62945,39.90728],[-75.62371,39.89727],[-75.61976,39.89349],[-75.61901,39.89081],[-75.61072,39.88467],[-75.60698,39.88266],[-75.60205,39.87809],[-75.59982,39.87681],[-75.59634,39.87106],[-75.59595,39.86697],[-75.60019,39.86191],[-75.60054,39.85923],[-75.60228,39.85681],[-75.60128,39.85517],[-75.59653,39.8533],[-75.59442,39.84999],[-75.59472,39.84811],[-75.59914,39.84211],[-75.5977,39.83754],[-75.59601,39.83666],[-75.59359,39.83729],[-75.59182,39.83826],[-75.58988,39.84088],[-75.58841,39.84158],[-75.58714,39.84147],[-75.58579,39.83899],[-75.58221,39.83611],[-75.58281,39.83461],[-75.58526,39.83301],[-75.58516,39.83167],[-75.58346,39.83123],[-75.58064,39.83263],[-75.57928,39.83257],[-75.57817,39.83169],[-75.57701,39.8286],[-75.57936,39.82502],[-75.57989,39.82201],[-75.58443,39.8202],[-75.58459,39.81764],[-75.58605,39.81514],[-75.58731,39.81002],[-75.59188,39.80223],[-75.59176,39.80067],[-75.59072,39.79955],[-75.58578,39.79832],[-75.58522,39.7961],[-75.58934,39.78736],[-75.5906,39.78623],[-75.59623,39.78376],[-75.59806,39.78017],[-75.59736,39.77591],[-75.59888,39.77249],[-75.59621,39.76482],[-75.5971,39.76126],[-75.59082,39.75611],[-75.59022,39.75493],[-75.59115,39.75335],[-75.59548,39.75167],[-75.59612,39.74994],[-75.59478,39.74756],[-75.59178,39.74499],[-75.58792,39.74026],[-75.58924,39.73706]]]}},{"type":"Feature","properties":{"k":1,"n":"Stony Creek Branch"},"geometry":{"type":"MultiLineString","coordinates":[[[-75.3456,40.1204],[-75.34491,40.12207],[-75.34588,40.12753],[-75.34085,40.13383],[-75.34343,40.13921],[-75.34338,40.14067],[-75.34177,40.14218],[-75.33385,40.14462],[-75.32753,40.15243],[-75.32642,40.15632],[-75.32221,40.16233],[-75.32318,40.16749],[-75.32266,40.16895],[-75.30977,40.17428],[-75.293,40.18539],[-75.29102,40.18757],[-75.2901,40.19036],[-75.29036,40.19286],[-75.29777,40.20565],[-75.29811,40.20739],[-75.28444,40.23969]]]}},{"type":"Feature","properties":{"k":1,"n":"36th Street Connection"},"geometry":{"type":"MultiLineString","coordinates":[[[-75.18307,39.96134],[-75.18839,39.96658],[-75.19734,39.96886]],[[-75.19589,39.96847],[-75.18841,39.96654],[-75.18312,39.96132]]]}},{"type":"Feature","properties":{"k":1,"n":"Cynwyd Line"},"geometry":{"type":"MultiLineString","coordinates":[[[-75.22524,39.97778],[-75.22811,39.9791],[-75.22878,39.98018],[-75.22582,39.98847],[-75.22579,39.99692],[-75.22698,39.99993],[-75.23145,40.00577],[-75.23205,40.00885]],[[-75.22666,39.98588],[-75.22935,39.97923],[-75.22834,39.9782],[-75.2239,39.97694]]]}},{"type":"Feature","properties":{"k":2,"n":"Market-Frankford Line"},"geometry":{"type":"MultiLineString","coordinates":[[[-75.07773,40.02439],[-75.07742,40.02367],[-75.08984,40.00949],[-75.13187,39.98631],[-75.13724,39.9657],[-75.14069,39.95989],[-75.14141,39.95147],[-75.14242,39.94997],[-75.20362,39.95741],[-75.20934,39.95857],[-75.21312,39.95856],[-75.24794,39.96288],[-75.25332,39.96459],[-75.25519,39.96434],[-75.2582,39.9625],[-75.26095,39.9631],[-75.26143,39.96255],[-75.25819,39.96246],[-75.25526,39.96427],[-75.25335,39.96455],[-75.24808,39.96286],[-75.21314,39.95853],[-75.20933,39.95853],[-75.20363,39.95737],[-75.14231,39.94998],[-75.14136,39.95146],[-75.14067,39.95953],[-75.13719,39.9657],[-75.1318,39.98632],[-75.0898,40.00947],[-75.07745,40.02342]],[[-75.26039,39.96284],[-75.26122,39.96314],[-75.26147,39.96249],[-75.25791,39.96257]]]}},{"type":"Feature","properties":{"k":2},"geometry":{"type":"MultiLineString","coordinates":[[[-75.00976,39.86684],[-75.01347,39.87335]]]}},{"type":"Feature","properties":{"k":3,"n":"Media/Sharon Hill Line"},"geometry":{"type":"MultiLineString","coordinates":[[[-75.29298,39.94691],[-75.26549,39.95931],[-75.2626,39.96179],[-75.25971,39.96235],[-75.26262,39.96181],[-75.26551,39.95934],[-75.293,39.94694]]]}},{"type":"Feature","properties":{"k":2,"n":"Broad Street Line"},"geometry":{"type":"MultiLineString","coordinates":[[[-75.17325,39.90463],[-75.16415,39.9494],[-75.16406,39.95344],[-75.16264,39.95629],[-75.14418,40.0409],[-75.14367,40.04125],[-75.14,40.04079],[-75.1385,40.03939],[-75.13586,40.0392],[-75.1353,40.04145],[-75.13803,40.04183]],[[-75.13942,40.04046],[-75.14359,40.04133],[-75.14433,40.04092],[-75.16311,39.95478],[-75.16422,39.9533],[-75.16386,39.9515],[-75.16477,39.94714]],[[-75.14929,40.01815],[-75.1605,39.96696],[-75.15882,39.96355],[-75.15287,39.95523],[-75.15295,39.95415],[-75.15291,39.9554],[-75.16034,39.96658],[-75.16003,39.96843]],[[-75.16473,39.94714],[-75.16381,39.9515],[-75.16417,39.9533],[-75.16306,39.95477],[-75.14423,40.04091],[-75.14367,40.04129],[-75.13928,40.04108]],[[-75.16017,39.96845],[-75.16315,39.95479],[-75.16428,39.9533],[-75.16394,39.95134],[-75.17341,39.90466]],[[-75.13842,40.04168],[-75.13977,40.04091],[-75.14434,40.04102],[-75.15119,40.00988]],[[-75.17341,39.90465],[-75.17251,39.90945]],[[-75.17325,39.90463],[-75.17254,39.90909]],[[-75.15096,40.00985],[-75.14924,40.01815]]]}},{"type":"Feature","properties":{"k":1,"n":"Black River and Western Railroad"},"geometry":{"type":"MultiLineString","coordinates":[[[-74.79429,40.51708],[-74.8224,40.52477],[-74.82606,40.52481],[-74.82838,40.52398],[-74.85592,40.50724],[-74.86037,40.50631],[-74.86173,40.50546],[-74.86586,40.47964],[-74.86312,40.47243],[-74.86174,40.46291],[-74.86026,40.45883],[-74.86042,40.4561],[-74.86339,40.44758],[-74.86692,40.44269],[-74.86935,40.43751],[-74.8799,40.43012],[-74.88581,40.4277]]]}},{"type":"Feature","properties":{"k":1,"n":"Salem Running Track"},"geometry":{"type":"MultiLineString","coordinates":[[[-75.15634,39.83044],[-75.1545,39.82903],[-75.1554,39.82725]],[[-75.15252,39.83086],[-75.1556,39.82714],[-75.17548,39.81864],[-75.20135,39.81056],[-75.21178,39.80674],[-75.22312,39.80421],[-75.25068,39.79042],[-75.26038,39.7844],[-75.28643,39.77142],[-75.29951,39.7623],[-75.30996,39.75294],[-75.31339,39.74864]]]}},{"type":"Feature","properties":{"k":1,"n":"Salem Branch"},"geometry":{"type":"MultiLineString","coordinates":[[[-75.31339,39.74864],[-75.31863,39.74199],[-75.31984,39.73896],[-75.31912,39.6915]]]}},{"type":"Feature","properties":{"k":1,"n":"Dillinger Tunnel"},"geometry":{"type":"MultiLineString","coordinates":[[[-75.49359,40.49965],[-75.48979,40.49597]]]}},{"type":"Feature","properties":{"k":1,"n":"Trenton Subdivision (Blue Line Branch)"},"geometry":{"type":"MultiLineString","coordinates":[[[-75.16348,40.01336],[-75.16213,40.01478],[-75.16189,40.01978]]]}},{"type":"Feature","properties":{"k":1,"n":"New Castle Secondary"},"geometry":{"type":"MultiLineString","coordinates":[[[-75.53503,39.72813],[-75.53737,39.72664],[-75.53816,39.72418],[-75.53282,39.71261],[-75.53247,39.7073],[-75.53428,39.70239],[-75.53852,39.69731]]]}},{"type":"Feature","properties":{"k":1,"n":"Reading Line"},"geometry":{"type":"MultiLineString","coordinates":[[[-75.82041,40.45154],[-75.81445,40.45354],[-75.80299,40.45908],[-75.79464,40.46579],[-75.78433,40.47009],[-75.76701,40.47852],[-75.73545,40.49049],[-75.72664,40.49622],[-75.72066,40.50127],[-75.71645,40.50312],[-75.70961,40.50418],[-75.69962,40.5041],[-75.66663,40.50696],[-75.65952,40.50601],[-75.6487,40.50219],[-75.64127,40.50185],[-75.63456,40.50339],[-75.62025,40.50926],[-75.59651,40.51274],[-75.57423,40.51268],[-75.53759,40.52228],[-75.51891,40.52348],[-75.51378,40.52448],[-75.49092,40.53455],[-75.48569,40.53803],[-75.48485,40.53964],[-75.48493,40.54149],[-75.48941,40.55019],[-75.4874,40.55535]],[[-75.48736,40.55534],[-75.48935,40.55006],[-75.48484,40.54133],[-75.48571,40.53794],[-75.49086,40.53453],[-75.51372,40.52446],[-75.51888,40.52344],[-75.53759,40.52224],[-75.57422,40.51264],[-75.5967,40.5127],[-75.62019,40.50923],[-75.63454,40.50336],[-75.64126,40.50181],[-75.64868,40.50215],[-75.66003,40.50611],[-75.66677,40.50693],[-75.69962,40.50407],[-75.7096,40.50415],[-75.71643,40.50308],[-75.72063,40.50124],[-75.72661,40.49619],[-75.73542,40.49045],[-75.76698,40.47849],[-75.78431,40.47005],[-75.79461,40.46576],[-75.80296,40.45905],[-75.81443,40.4535],[-75.82039,40.45151]]]}},{"type":"Feature","properties":{"k":1,"n":"Lehigh Line"},"geometry":{"type":"MultiLineString","coordinates":[[[-74.67962,40.51771],[-74.68957,40.51505],[-74.71193,40.51409],[-74.7226,40.51068],[-74.76309,40.51182],[-74.76668,40.51047],[-74.77134,40.50639],[-74.77406,40.50569],[-74.77694,40.50592],[-74.78031,40.50779],[-74.78485,40.51409],[-74.78985,40.51722],[-74.83406,40.52826],[-74.83755,40.52989],[-74.85662,40.55381],[-74.85881,40.56313],[-74.86219,40.56759]],[[-74.83974,40.53202],[-74.85658,40.55382],[-74.85863,40.56279],[-74.8618,40.56717]]]}},{"type":"Feature","properties":{"k":1,"n":"Hatch Connecting Track"},"geometry":{"type":"MultiLineString","coordinates":[[[-75.06505,39.97568],[-75.06393,39.97799],[-75.065,39.97988]]]}},{"type":"Feature","properties":{"k":1,"n":"County Siding"},"geometry":{"type":"MultiLineString","coordinates":[[[-75.238,40.28032],[-75.24455,40.2755]]]}},{"type":"Feature","properties":{"k":1,"n":"Penn Eastern Lines"},"geometry":{"type":"MultiLineString","coordinates":[[[-75.51035,40.40847],[-75.50604,40.40371]]]}}],"note":"non-service track; 1 heavy rail, 2 metro, 3 tram"}
