{"type":"FeatureCollection","attribution":"(c) OpenStreetMap contributors, ODbL 1.0","generator":"tools/build_vectors.py","region":{"west":-75.8,"east":-74.7,"south":39.7,"north":40.55},"features":[{"type":"Feature","properties":{"lvl":6},"geometry":{"type":"MultiLineString","coordinates":[[[-74.72422,39.72229],[-74.67739,39.69241]],[[-74.67956,40.17401],[-74.68035,40.17599],[-74.68451,40.17804],[-74.68537,40.17538],[-74.68689,40.17743],[-74.69069,40.17695],[-74.69238,40.17933],[-74.69588,40.17891],[-74.69441,40.18149],[-74.69517,40.18281],[-74.69839,40.18259],[-74.70242,40.18422],[-74.70414,40.18231],[-74.7101,40.18128],[-74.71121,40.17993],[-74.70975,40.17848],[-74.71309,40.1751],[-74.70842,40.17185],[-74.71067,40.16862],[-74.71011,40.16672],[-74.70839,40.16667],[-74.70576,40.16898],[-74.70421,40.16873],[-74.70668,40.16131],[-74.71328,40.15573],[-74.71382,40.15266],[-74.71871,40.14812],[-74.72372,40.14718],[-74.73997,40.13545],[-74.74447,40.13413],[-74.75172,40.13509],[-74.75957,40.13425],[-74.78121,40.1224],[-74.78614,40.12106],[-74.79946,40.12292],[-74.8157,40.1278],[-74.82257,40.12707],[-74.82739,40.12266],[-74.83734,40.10109],[-74.85502,40.09274],[-74.85815,40.08943],[-74.86066,40.08394],[-74.8775,40.08051],[-74.9094,40.07055],[-74.91581,40.07015],[-74.92092,40.07182],[-74.92797,40.07062],[-74.94227,40.06451],[-74.95214,40.05886],[-74.96894,40.05276],[-74.97439,40.0498],[-75.00002,40.02934],[-75.01378,40.02017],[-75.03422,40.01522],[-75.04709,40.00994],[-75.0534,40.00457],[-75.05809,39.9974],[-75.05991,39.99153],[-75.04942,39.99126],[-75.04708,39.99441],[-75.04519,39.99474],[-75.04315,39.99333],[-75.04148,39.99478],[-75.03635,39.99608],[-75.03226,39.99386],[-75.03265,39.99163],[-75.03118,39.99321],[-75.03065,39.9916],[-75.02859,39.99181],[-75.02735,39.99359],[-75.02531,39.99098],[-75.02128,39.98885],[-75.02041,39.99012],[-75.01872,39.98932],[-75.01816,39.98512],[-75.01499,39.9854],[-75.01471,39.98416],[-75.01637,39.98408],[-75.01384,39.98031],[-75.01015,39.97977],[-75.01556,39.97638],[-75.01594,39.9738],[-75.0174,39.97468],[-75.01615,39.97014],[-75.01969,39.96937],[-75.02009,39.96825],[-75.01872,39.96366],[-75.01675,39.96209],[-75.01761,39.9592],[-75.01311,39.95643],[-75.01616,39.95044],[-75.01515,39.94674],[-75.01281,39.94516],[-75.00921,39.94515],[-75.00426,39.94156],[-75.00063,39.94183],[-74.9987,39.94024],[-74.99648,39.94052],[-74.99462,39.93929],[-74.98912,39.94106],[-74.9868,39.9399],[-74.98036,39.9404],[-74.97611,39.93966],[-74.97488,39.93838],[-74.97651,39.93554],[-74.98098,39.93412],[-74.9812,39.93108],[-74.98455,39.93124],[-74.98538,39.93046],[-74.98378,39.92699],[-74.97453,39.9215],[-74.96955,39.9216],[-74.9628,39.9201],[-74.95507,39.91203],[-74.9523,39.90696],[-74.95179,39.90135],[-74.94964,39.89842],[-74.94532,39.89611],[-74.94419,39.89314],[-74.94084,39.89236],[-74.93071,39.88585],[-74.90407,39.79351],[-74.90306,39.79101],[-74.89852,39.7895],[-74.89553,39.78404],[-74.88906,39.7818],[-74.8765,39.78165],[-74.86781,39.78481],[-74.85376,39.78706],[-74.84518,39.79],[-74.83661,39.79037],[-74.80743,39.78374],[-74.79904,39.77741],[-74.7985,39.77595],[-74.79148,39.77212],[-74.78804,39.76729],[-74.78352,39.76377],[-74.78091,39.75857],[-74.7753,39.75672],[-74.77289,39.75093],[-74.76851,39.74959],[-74.76637,39.74663],[-74.76138,39.74455],[-74.75964,39.7424],[-74.75755,39.74351],[-74.72422,39.72229]],[[-75.57993,39.83886],[-75.58335,39.84277],[-75.58667,39.84431],[-75.58923,39.84305],[-75.5935,39.83768],[-75.56838,39.8394],[-75.5418,39.839],[-75.51867,39.83679],[-75.49302,39.83225],[-75.47266,39.82695],[-75.45038,39.81926],[-75.43337,39.81187],[-75.41402,39.80162],[-75.39052,39.81176],[-75.38456,39.81934],[-75.35608,39.83874],[-75.34148,39.84614],[-75.325,39.84961],[-75.27531,39.84921],[-75.24697,39.85398],[-75.2218,39.86098],[-75.19986,39.87322],[-75.19471,39.87774],[-75.18877,39.88083],[-75.18139,39.88212],[-75.14515,39.8842],[-75.14114,39.88602],[-75.13954,39.88797],[-75.12934,39.8834],[-75.12748,39.88148],[-75.12834,39.87971],[-75.13206,39.87826],[-75.12554,39.87422],[-75.12092,39.87302],[-75.12079,39.87217],[-75.12347,39.87266],[-75.1244,39.87179],[-75.11884,39.86276],[-75.11724,39.86321],[-75.11799,39.86749],[-75.11285,39.86296],[-75.1136,39.8622],[-75.11623,39.86268],[-75.11382,39.85949],[-75.1081,39.85989],[-75.11008,39.86152],[-75.10767,39.86318],[-75.10452,39.86245],[-75.106,39.86075],[-75.10458,39.85447],[-75.10226,39.85391],[-75.10262,39.85627],[-75.09453,39.8522],[-75.09329,39.85079],[-75.09349,39.84796],[-75.09003,39.84758],[-75.08838,39.84516],[-75.08513,39.84459],[-75.0834,39.84237],[-75.08399,39.83983],[-75.08702,39.83819],[-75.0846,39.83674],[-75.08493,39.8347],[-75.08286,39.83342],[-75.08491,39.83059],[-75.08268,39.82721],[-75.08543,39.8253],[-75.08548,39.82299],[-75.08836,39.82066],[-75.08638,39.81589],[-75.08861,39.81422],[-75.08507,39.81364],[-75.08423,39.81128],[-75.08049,39.80809],[-75.08074,39.806],[-75.07731,39.80619],[-75.07276,39.80276],[-75.07593,39.79935],[-75.07575,39.79808],[-75.07404,39.7976],[-75.07289,39.79347],[-75.07959,39.78945],[-75.08207,39.79111],[-75.08707,39.77958],[-75.07796,39.7809],[-75.07437,39.77394],[-75.0697,39.77624],[-75.07171,39.77995],[-75.06583,39.78228],[-75.06663,39.78281],[-75.06334,39.78601],[-75.06364,39.78406],[-75.05842,39.78303],[-75.05494,39.78382],[-75.05383,39.78111],[-75.04903,39.7785],[-75.04992,39.77369],[-75.04885,39.77105],[-75.04288,39.76474],[-75.0431,39.76149],[-75.03902,39.75989],[-75.03013,39.75092],[-75.0216,39.74589],[-75.02259,39.7406],[-75.02025,39.73576],[-75.02426,39.73057],[-74.99452,39.71627],[-74.99375,39.71032],[-74.98482,39.70562],[-74.97171,39.70222],[-74.96743,39.70318],[-74.95925,39.70301],[-74.95301,39.69904],[-74.94367,39.69832],[-74.94017,39.6968],[-74.9342,39.69318],[-74.93287,39.69119],[-74.93058,39.69085],[-74.92992,39.68854],[-74.92709,39.68744],[-74.92699,39.68454],[-74.92367,39.68283],[-74.92157,39.67999]],[[-74.79609,39.6784],[-74.73631,39.72991]],[[-75.82135,39.72216],[-75.77378,39.7222],[-75.76254,39.74394],[-75.74718,39.76459],[-75.72732,39.7841],[-75.70638,39.79957],[-75.68118,39.8136],[-75.65474,39.82434],[-75.62694,39.83213],[-75.59544,39.83746],[-75.59763,39.83919],[-75.59786,39.84095],[-75.59488,39.84491],[-75.59399,39.85018],[-75.59189,39.85213],[-75.5933,39.8533],[-75.59866,39.85408],[-75.60158,39.85621],[-75.59642,39.86288],[-75.59539,39.86635],[-75.59249,39.86781],[-75.59798,39.87443],[-75.58476,39.88098],[-75.58713,39.88409],[-75.58242,39.88575],[-75.58042,39.88374],[-75.57116,39.88814],[-75.57426,39.89215],[-75.57229,39.8932],[-75.57338,39.8964],[-75.5593,39.90299],[-75.5613,39.90744],[-75.55865,39.90869],[-75.55605,39.90541],[-75.54646,39.90971],[-75.5505,39.9149],[-75.54242,39.91836],[-75.54408,39.92042],[-75.54437,39.92341],[-75.54106,39.92511],[-75.54269,39.92723],[-75.53612,39.92991],[-75.53025,39.92212],[-75.52717,39.92343],[-75.52581,39.92178],[-75.52358,39.92326],[-75.53045,39.93205],[-75.53015,39.93336],[-75.52617,39.93498],[-75.52451,39.9316],[-75.51894,39.93436],[-75.51913,39.93849],[-75.52388,39.94411],[-75.43571,39.98543],[-75.4358,39.98926],[-75.43852,39.99068],[-75.43692,39.99288],[-75.43763,39.99363],[-75.44109,39.99179],[-75.44331,39.9938],[-75.4537,39.99356],[-75.40433,40.02742],[-75.41499,40.04179],[-75.36105,40.0655],[-75.36686,40.07236],[-75.393,40.06081],[-75.42005,40.09716],[-75.43865,40.08915],[-75.44212,40.09377],[-75.4563,40.08761],[-75.45675,40.09449],[-75.46298,40.0974],[-75.46182,40.10301],[-75.46823,40.10634],[-75.47163,40.11238],[-75.46862,40.11735],[-75.46219,40.11971],[-75.46176,40.12492],[-75.47152,40.12925],[-75.48935,40.12554],[-75.49549,40.12731],[-75.5069,40.13345],[-75.50995,40.13709],[-75.51107,40.14075],[-75.50954,40.14493],[-75.50081,40.15452],[-75.50139,40.15775],[-75.50354,40.15949],[-75.50905,40.15997],[-75.5127,40.15849],[-75.51952,40.14767],[-75.52277,40.14706],[-75.52644,40.14905],[-75.52766,40.15008],[-75.5269,40.15953],[-75.5288,40.16844],[-75.54064,40.17573],[-75.54558,40.18284],[-75.54657,40.18719],[-75.54937,40.18989],[-75.55711,40.20707],[-75.56085,40.20975],[-75.56369,40.20956],[-75.56491,40.20621],[-75.56239,40.2009],[-75.56287,40.19736],[-75.56931,40.19369],[-75.574,40.19524],[-75.57907,40.19963],[-75.58118,40.20662],[-75.58797,40.21498],[-75.59618,40.23605],[-75.60026,40.23786],[-75.60501,40.23778],[-75.60735,40.23562],[-75.60729,40.23242],[-75.6032,40.22876],[-75.60395,40.2258],[-75.61194,40.22294],[-75.61614,40.22484],[-75.62006,40.23027],[-75.63103,40.23367],[-75.65093,40.24191],[-75.65754,40.24132],[-75.66308,40.24463],[-75.6707,40.24463],[-75.6765,40.24255],[-75.68473,40.23699],[-75.68759,40.23615],[-75.69053,40.23661],[-75.69682,40.24187],[-75.76831,40.20361],[-75.82137,40.16964]],[[-75.51083,39.67985],[-75.50924,39.68621],[-75.51015,39.68674],[-75.50996,39.6938],[-75.50735,39.69718],[-75.49688,39.70117],[-75.49201,39.71099],[-75.48688,39.71577],[-75.48382,39.71605],[-75.48309,39.71474],[-75.47896,39.71405],[-75.47718,39.71579],[-75.4772,39.72572],[-75.4754,39.73134],[-75.47617,39.73355],[-75.46903,39.74374],[-75.46345,39.75741],[-75.46308,39.76226],[-75.45981,39.76599],[-75.45584,39.76667],[-75.45302,39.76854],[-75.44741,39.77363],[-75.44845,39.77439],[-75.44714,39.77655],[-75.43801,39.78361],[-75.40528,39.79623],[-75.41402,39.80162]],[[-75.26637,40.57758],[-75.29363,40.56192],[-75.33305,40.53677],[-75.40384,40.58079]],[[-75.18824,40.57044],[-75.18329,40.56761],[-75.17443,40.56472],[-75.16241,40.56405],[-75.15792,40.56548],[-75.15063,40.57086]],[[-75.11249,40.57169],[-75.0993,40.56706],[-75.07807,40.54796],[-75.06909,40.5426],[-75.06764,40.5407],[-75.06517,40.52584],[-75.06491,40.50295],[-75.06317,40.49877],[-75.06201,40.48835],[-75.06337,40.47895],[-75.06809,40.4736],[-75.06708,40.46562],[-75.07104,40.45615],[-75.06621,40.44601],[-75.06196,40.42441],[-75.05849,40.41836],[-75.05589,40.41644],[-75.04631,40.41414],[-75.04129,40.40976],[-75.03241,40.40516],[-75.02814,40.40404],[-75.02274,40.40402],[-75.00373,40.40784],[-74.99848,40.41038],[-74.99472,40.41039],[-74.98839,40.40844],[-74.98182,40.40408],[-74.96893,40.39958],[-74.96567,40.39742],[-74.94897,40.36557],[-74.94617,40.35788],[-74.94504,40.34627],[-74.94042,40.33828],[-74.92382,40.32754],[-74.91517,40.32034],[-74.90685,40.31643],[-74.89667,40.31527],[-74.89242,40.31346],[-74.87095,40.29789],[-74.86054,40.28535],[-74.85309,40.26916],[-74.84005,40.24844],[-74.8217,40.24071],[-74.82012,40.2387],[-74.81474,40.23607],[-74.79374,40.22886],[-74.7722,40.21617],[-74.76751,40.2077],[-74.76067,40.1993],[-74.75518,40.18639],[-74.75063,40.18334],[-74.73989,40.17973],[-74.73038,40.17138],[-74.72314,40.16305],[-74.72111,40.15409],[-74.72372,40.14718]],[[-75.05991,39.99153],[-75.06637,39.9841],[-75.0756,39.97804],[-75.08583,39.9751],[-75.09637,39.97398],[-75.10604,39.9711],[-75.11949,39.96537],[-75.12977,39.95946],[-75.13257,39.95672],[-75.13599,39.94767],[-75.13592,39.92923],[-75.12889,39.91411],[-75.12837,39.90969],[-75.13137,39.90022],[-75.13954,39.88797]],[[-75.69682,40.24187],[-75.52969,40.447],[-75.73994,40.58013]],[[-75.33305,40.53677],[-75.40973,40.48798],[-75.48393,40.41848],[-75.43262,40.38866],[-75.42237,40.38152],[-75.29461,40.30455],[-75.20997,40.25507],[-75.13941,40.21179],[-74.99794,40.12783],[-74.99349,40.13192],[-74.99238,40.13064],[-74.99383,40.12672],[-74.98947,40.12631],[-74.98724,40.12335],[-74.98309,40.12341],[-74.9824,40.12042],[-74.97949,40.11957],[-74.97312,40.11986],[-74.96989,40.11717],[-74.96463,40.11846],[-74.96311,40.11523],[-74.96339,40.11029],[-74.96532,40.10796],[-74.96092,40.10315],[-74.96166,40.09799],[-74.95586,40.09485],[-74.95808,40.09028],[-74.95815,40.08435],[-74.96244,40.07801],[-74.96355,40.07705],[-74.97129,40.07586],[-74.97103,40.07383],[-74.97255,40.07213],[-74.98099,40.06597],[-74.98046,40.06008],[-74.98518,40.05719],[-74.98352,40.05443],[-74.97966,40.05348],[-74.97439,40.0498]],[[-75.01509,40.13796],[-75.02057,40.13227],[-75.05842,40.10582],[-75.0778,40.08577],[-75.08119,40.08412],[-75.08694,40.07868],[-75.09627,40.06886],[-75.08697,40.06349],[-75.09298,40.05706],[-75.10606,40.04926],[-75.10893,40.04572],[-75.17647,40.08467],[-75.18849,40.07277],[-75.2236,40.09291],[-75.26443,40.05409],[-75.2398,40.03333],[-75.2317,40.0278],[-75.21849,40.02126],[-75.21313,40.01618],[-75.20578,40.01166],[-75.28026,39.97502],[-75.27527,39.96936],[-75.27067,39.96872],[-75.26992,39.96738],[-75.26539,39.96522],[-75.26045,39.96627],[-75.25786,39.96359],[-75.25414,39.9654],[-75.24778,39.96388],[-75.24797,39.96094],[-75.25089,39.95897],[-75.2489,39.95661],[-75.25156,39.95212],[-75.25154,39.94928],[-75.24671,39.94283],[-75.24025,39.94216],[-75.23939,39.94072],[-75.24063,39.93862],[-75.23531,39.93831],[-75.23483,39.93731],[-75.23731,39.93265],[-75.24196,39.93345],[-75.24437,39.9304],[-75.24437,39.92626],[-75.24749,39.9219],[-75.24718,39.91368],[-75.25128,39.91013],[-75.24995,39.90938],[-75.25022,39.90782],[-75.25349,39.90559],[-75.25129,39.9044],[-75.25579,39.89975],[-75.25681,39.89472],[-75.25896,39.89253],[-75.26164,39.89182],[-75.26227,39.88848],[-75.26485,39.88785],[-75.26462,39.88628],[-75.26276,39.88593],[-75.26441,39.88432],[-75.26187,39.88282],[-75.26532,39.88159],[-75.26253,39.87656],[-75.24843,39.87649],[-75.2409,39.8724],[-75.23412,39.87718],[-75.21974,39.87547],[-75.21572,39.87609],[-75.21604,39.87112],[-75.21142,39.867]],[[-75.27651,39.97697],[-75.31143,40.01981],[-75.3207,40.01621],[-75.35653,40.06279],[-75.36007,40.0662],[-75.36107,40.06553]],[[-75.78859,39.7222],[-75.78859,39.67955]],[[-75.52969,40.447],[-75.48393,40.41848]],[[-74.67957,40.38357],[-74.70774,40.3794],[-74.72209,40.37519],[-74.74817,40.42423],[-74.80854,40.41665],[-74.802,40.38498],[-74.86984,40.37785],[-74.85626,40.34669],[-74.93228,40.33943],[-74.94291,40.34168]],[[-74.72186,40.57063],[-74.72464,40.56611],[-74.7307,40.56358],[-74.74266,40.5539],[-74.77542,40.50349],[-74.78133,40.5048],[-74.78769,40.51227],[-74.79788,40.51564],[-74.74817,40.42423]],[[-75.25914,39.67999],[-75.2613,39.68152],[-75.26633,39.68227],[-75.2831,39.67999]],[[-75.2868,39.67984],[-75.28777,39.6815],[-75.29105,39.68276],[-75.29504,39.68612],[-75.29697,39.68575],[-75.30202,39.68841],[-75.30401,39.68773],[-75.3073,39.68961],[-75.31171,39.68781],[-75.31418,39.68825],[-75.31375,39.69017],[-75.31502,39.6914],[-75.32606,39.69012],[-75.32687,39.69309],[-75.32548,39.69489],[-75.32726,39.69661],[-75.3306,39.69645],[-75.33109,39.69836],[-75.33517,39.70016],[-75.3363,39.70405],[-75.34015,39.70522],[-75.34165,39.7043],[-75.34611,39.70616],[-75.34995,39.71109],[-75.35596,39.71175],[-75.35732,39.71298],[-75.35891,39.7123],[-75.35897,39.71359],[-75.36025,39.71303],[-75.36142,39.71673],[-75.36289,39.71591],[-75.36726,39.71762],[-75.36638,39.72013],[-75.36717,39.72213],[-75.36921,39.72189],[-75.36925,39.72341],[-75.37197,39.72488],[-75.37317,39.72408],[-75.3752,39.72523],[-75.37508,39.72651],[-75.37659,39.72642],[-75.37538,39.73391],[-75.37409,39.73529],[-75.37733,39.73876],[-75.37673,39.74498],[-75.37822,39.74512],[-75.3802,39.74834],[-75.38622,39.74742],[-75.38732,39.74977],[-75.386,39.75061],[-75.3884,39.75071],[-75.38733,39.75206],[-75.3883,39.75265],[-75.39063,39.75206],[-75.39069,39.75],[-75.39189,39.75],[-75.3919,39.7521],[-75.39558,39.75448],[-75.3942,39.75556],[-75.3924,39.75493],[-75.39012,39.75655],[-75.3925,39.7583],[-75.3897,39.76043],[-75.39646,39.76128],[-75.39785,39.75749],[-75.39956,39.75852],[-75.39928,39.76132],[-75.4032,39.76125],[-75.40589,39.76328],[-75.4045,39.76936],[-75.40365,39.76978],[-75.40165,39.76774],[-75.40023,39.76783],[-75.39699,39.76957],[-75.39497,39.77373],[-75.39601,39.77434],[-75.39849,39.77267],[-75.40039,39.77296],[-75.40106,39.77566],[-75.40004,39.77803],[-75.40248,39.78258],[-75.40473,39.78058],[-75.4081,39.78112],[-75.40621,39.78409],[-75.40762,39.78745],[-75.41317,39.785],[-75.41717,39.7854],[-75.42312,39.78382],[-75.4345,39.78283],[-75.44222,39.77877],[-75.44792,39.77399]]]}},{"type":"Feature","properties":{"lvl":8},"geometry":{"type":"MultiLineString","coordinates":[[[-75.48951,39.81542],[-75.48721,39.81562],[-75.48894,39.81435],[-75.49254,39.8162],[-75.48951,39.81542]],[[-75.47615,39.80815],[-75.47311,39.80497],[-75.47983,39.80355],[-75.4867,39.8091],[-75.48012,39.81259],[-75.47615,39.80815]],[[-74.67876,39.68869],[-74.68937,39.67954]],[[-75.03058,40.01619],[-75.02421,40.00974],[-75.00877,40.00278],[-74.99727,40.00981],[-75.00549,40.01072],[-75.01378,40.02017]],[[-75.03077,39.99281],[-75.01288,39.99877],[-75.01461,39.99956],[-75.01023,40.00334]],[[-75.16033,39.82482],[-75.15645,39.82674],[-75.15142,39.82563],[-75.13576,39.83237],[-75.14175,39.83991],[-75.1384,39.84725],[-75.1351,39.84773],[-75.14308,39.85073],[-75.1467,39.85501],[-75.14825,39.8494],[-75.15496,39.84135],[-75.16653,39.84693],[-75.16948,39.84216],[-75.17082,39.83531],[-75.16345,39.83289],[-75.16033,39.82482]],[[-75.15032,39.82612],[-75.14909,39.82006],[-75.14371,39.81785],[-75.14405,39.81916],[-75.13967,39.81903],[-75.13719,39.81643],[-75.13571,39.80948],[-75.1512,39.80654],[-75.15157,39.8129],[-75.15924,39.81233],[-75.15914,39.80872],[-75.16572,39.81103],[-75.16061,39.82406]],[[-75.12063,39.87261],[-75.11751,39.87647],[-75.10861,39.87865],[-75.11643,39.88379],[-75.12215,39.88366],[-75.12242,39.88217],[-75.1254,39.88404],[-75.12742,39.88076]],[[-75.11566,39.86163],[-75.13013,39.85605],[-75.13502,39.85941],[-75.13441,39.8613],[-75.14189,39.86498],[-75.13032,39.87184],[-75.14515,39.8842]],[[-75.15414,39.79793],[-75.15294,39.80187],[-75.15022,39.80071],[-75.14457,39.80262],[-75.13808,39.78075],[-75.15308,39.78323],[-75.15283,39.78605],[-75.15927,39.78868],[-75.1603,39.79175],[-75.15414,39.79793]],[[-75.11384,39.73739],[-75.11538,39.7289],[-75.12747,39.72115],[-75.13064,39.72365],[-75.13533,39.71913],[-75.15035,39.73138],[-75.12734,39.74944],[-75.12464,39.74331],[-75.12105,39.74423],[-75.11346,39.73929],[-75.11384,39.73739]],[[-75.22869,39.85865],[-75.22523,39.85209],[-75.22912,39.8438],[-75.22297,39.84395],[-75.22517,39.84165],[-75.22286,39.83966],[-75.23224,39.84098],[-75.23086,39.8379],[-75.23512,39.83854],[-75.23144,39.83663],[-75.2328,39.83529],[-75.23651,39.83639],[-75.23634,39.82906],[-75.22869,39.828],[-75.22957,39.83141],[-75.22719,39.82882],[-75.22766,39.82606],[-75.23696,39.81984],[-75.25612,39.82621],[-75.25249,39.83271],[-75.24629,39.83428],[-75.2455,39.83877],[-75.24908,39.84516],[-75.25131,39.8446],[-75.25733,39.85208]],[[-75.13533,39.71913],[-75.16826,39.68572],[-75.15879,39.68524],[-75.14823,39.69205],[-75.11358,39.69464],[-75.10759,39.67996]],[[-75.05618,39.67956],[-75.08659,39.70065],[-75.09691,39.7212],[-75.11088,39.73153],[-75.11384,39.73739]],[[-75.47199,39.73935],[-75.46064,39.73103],[-75.46108,39.72303],[-75.47097,39.71734],[-75.47641,39.72061]],[[-74.75158,40.18383],[-74.74691,40.18511],[-74.75277,40.19835],[-74.73498,40.20066],[-74.73256,40.20339],[-74.73742,40.20971],[-74.72977,40.21666],[-74.73281,40.21971],[-74.7289,40.22074],[-74.73926,40.23151],[-74.7319,40.24207],[-74.74337,40.24509],[-74.74894,40.23981],[-74.75069,40.24187],[-74.75511,40.23755],[-74.75852,40.23891],[-74.76474,40.23284],[-74.78293,40.24418],[-74.78518,40.24197],[-74.78934,40.24615],[-74.79435,40.24648],[-74.79618,40.24431],[-74.8026,40.2483],[-74.81051,40.24159],[-74.81597,40.24326],[-74.81958,40.23839]],[[-74.85657,40.27739],[-74.85043,40.28],[-74.84542,40.28822],[-74.84084,40.29048],[-74.82877,40.28945],[-74.81978,40.28568],[-74.80047,40.28955],[-74.79785,40.29221],[-74.76189,40.28422],[-74.76235,40.27757],[-74.75237,40.27266],[-74.75648,40.26438],[-74.74935,40.26069],[-74.75124,40.25408],[-74.74906,40.25106],[-74.75625,40.24864],[-74.75069,40.24187]],[[-75.08916,39.88875],[-75.08025,39.88207],[-75.08548,39.88007],[-75.08215,39.8724],[-75.08861,39.87211],[-75.10242,39.87765],[-75.10805,39.87793],[-75.10266,39.87885],[-75.10045,39.88225],[-75.0982,39.88159],[-75.09633,39.88985],[-75.08916,39.88875]],[[-75.08916,39.88875],[-75.09151,39.89412],[-75.08581,39.89355],[-75.08363,39.89716],[-75.07822,39.89457],[-75.0652,39.90143],[-75.06043,39.8944],[-75.05147,39.88988],[-75.0736,39.88169],[-75.08012,39.88167]],[[-75.08363,39.89716],[-75.09384,39.89961],[-75.09151,39.89412]],[[-75.08215,39.8724],[-75.07686,39.87305],[-75.07511,39.8691],[-75.06772,39.87211],[-75.06047,39.86385],[-75.06252,39.86132],[-75.06422,39.85991],[-75.08206,39.86088],[-75.08616,39.85844],[-75.08819,39.85356],[-75.09175,39.85331],[-75.0999,39.8583],[-75.10319,39.85633]],[[-75.06422,39.85991],[-75.05689,39.85436],[-75.04091,39.8623],[-75.04658,39.86986],[-75.04081,39.87329],[-75.04086,39.87547],[-75.03739,39.87427],[-75.03712,39.87892],[-75.02902,39.87263],[-75.01641,39.87223],[-75.01735,39.87711],[-75.02721,39.88728],[-75.02438,39.895],[-75.0212,39.89553],[-75.02168,39.89893],[-75.01905,39.90015],[-75.02705,39.90678],[-75.02648,39.91117],[-75.03133,39.91571],[-75.04249,39.91617],[-75.04236,39.91196],[-75.03762,39.91041],[-75.03928,39.90806],[-75.04265,39.90789],[-75.04158,39.90467],[-75.04806,39.90015],[-75.04825,39.89584],[-75.05132,39.89604],[-75.05147,39.88988],[-75.04603,39.88305],[-75.05047,39.87407],[-75.05438,39.87551],[-75.06772,39.87211]],[[-75.04603,39.88305],[-75.03773,39.88462],[-75.03712,39.87892]],[[-75.0372,39.88108],[-75.02821,39.87671],[-75.02293,39.87732],[-75.01826,39.87192]],[[-74.94782,39.78482],[-74.96611,39.79973],[-74.957,39.80915],[-74.94481,39.8053],[-74.93263,39.79824],[-74.9322,39.80156],[-74.92451,39.80013],[-74.92728,39.79804],[-74.91622,39.79239],[-74.91949,39.79055],[-74.90796,39.78376],[-74.9133,39.77655],[-74.92796,39.77601],[-74.9353,39.77932],[-74.93946,39.77808],[-74.94782,39.78482]],[[-75.09615,39.91372],[-75.0998,39.91336],[-75.10198,39.91815],[-75.09135,39.92108],[-75.09018,39.91423],[-75.09615,39.91372]],[[-75.09135,39.92108],[-75.08153,39.92605],[-75.08709,39.9273],[-75.08594,39.93419],[-75.08975,39.93615],[-75.08308,39.94063],[-75.07932,39.93888],[-75.06976,39.94695],[-75.06661,39.94678],[-75.06655,39.94852],[-75.07271,39.94787],[-75.07446,39.95105],[-75.0697,39.95408],[-75.0729,39.95709],[-75.07755,39.95521],[-75.08812,39.96948],[-75.10758,39.95831],[-75.12382,39.96274]],[[-75.09615,39.91372],[-75.09229,39.90965],[-75.09714,39.908],[-75.09476,39.90149],[-75.10034,39.89866],[-75.11339,39.89943],[-75.11667,39.90208],[-75.11384,39.90343],[-75.11411,39.90669],[-75.11652,39.90349],[-75.1179,39.90861],[-75.12889,39.90745]],[[-75.10102,39.89866],[-75.10331,39.89247],[-75.09787,39.89238],[-75.09633,39.88985]],[[-74.97101,39.79828],[-74.97287,39.79286],[-74.98404,39.79853],[-74.98845,39.79697],[-74.98881,39.79462],[-74.99559,39.79686],[-75.00022,39.79619],[-75.00029,39.80539],[-75.00367,39.80744],[-74.9958,39.8137],[-74.99357,39.81102],[-74.98511,39.81239],[-74.98324,39.81476],[-74.97425,39.81491],[-74.97206,39.81393],[-74.9722,39.80722],[-74.96584,39.80606],[-74.96938,39.80442],[-74.96611,39.79973],[-74.97021,39.8005],[-74.97101,39.79828]],[[-75.00029,39.80539],[-75.02369,39.80423],[-75.01449,39.79623],[-75.00802,39.77962],[-74.9817,39.77696],[-74.96837,39.76714],[-74.94782,39.78482]],[[-75.09384,39.89961],[-75.09476,39.90149],[-75.08791,39.90608],[-75.0744,39.90982],[-75.07092,39.90655],[-75.07778,39.90315],[-75.07338,39.89842]],[[-75.07092,39.90655],[-75.07026,39.90464],[-75.06803,39.90564],[-75.06664,39.90987],[-75.05902,39.90932],[-75.0567,39.91383],[-75.06609,39.92585],[-75.08153,39.92605]],[[-74.95796,39.81761],[-74.96653,39.82183],[-74.97032,39.82631],[-74.98034,39.82766],[-74.98586,39.83409],[-74.98196,39.8357],[-74.97895,39.84082],[-74.97061,39.84483],[-74.96488,39.84589],[-74.94961,39.83668],[-74.94809,39.83044],[-74.95352,39.82708],[-74.95067,39.82243],[-74.95862,39.82241],[-74.95796,39.81761]],[[-75.01844,39.84076],[-75.01732,39.8327],[-75.02263,39.83415],[-75.02834,39.83158],[-75.02861,39.83411],[-75.02162,39.83785],[-75.02456,39.842],[-75.01886,39.8425],[-75.01844,39.84076]],[[-74.99818,39.82553],[-74.99464,39.82021],[-74.99954,39.821],[-75.00224,39.81606],[-75.01508,39.81883],[-75.01206,39.82386],[-75.00772,39.82446],[-75.00643,39.82662],[-74.99818,39.82553]],[[-75.02834,39.83158],[-75.03894,39.82955],[-75.03423,39.83044],[-75.02798,39.82138],[-75.01508,39.81883]],[[-74.99818,39.82553],[-74.9938,39.82597],[-74.99616,39.8297],[-75.01494,39.84162],[-75.01844,39.84076]],[[-75.04091,39.8623],[-75.03369,39.863],[-75.02217,39.85772],[-75.01598,39.85935],[-75.01268,39.86291],[-75.01641,39.87223]],[[-75.02369,39.80423],[-75.02412,39.81715],[-75.02798,39.82138]],[[-74.957,39.80915],[-74.95271,39.81311],[-74.95796,39.81761]],[[-74.98586,39.83409],[-75.00158,39.83652],[-75.00495,39.83413]],[[-75.02217,39.85772],[-75.02708,39.85515],[-75.02452,39.85186],[-75.03961,39.84927],[-75.03732,39.84253],[-75.02953,39.84182],[-75.02861,39.83411]],[[-74.92694,39.87384],[-74.97462,39.86062],[-75.01598,39.85935],[-75.0184,39.85221],[-75.00158,39.83652]],[[-75.04952,39.85852],[-75.04931,39.85064],[-75.04159,39.85264],[-75.03961,39.84927]],[[-75.01345,39.95419],[-75.02837,39.95263],[-75.03332,39.94932],[-75.04148,39.95114],[-75.0479,39.95727],[-75.05359,39.95445],[-75.05152,39.95211],[-75.06475,39.95063],[-75.06299,39.94624],[-75.04563,39.94733],[-75.06609,39.92585],[-75.06062,39.92599],[-75.04837,39.92191],[-75.03935,39.91651]],[[-75.03692,39.94967],[-75.03533,39.94783],[-75.03817,39.94625],[-75.04563,39.94733]],[[-75.08385,39.8405],[-75.04931,39.85064]],[[-74.85932,40.50041],[-74.86696,40.50012],[-74.86949,40.50683],[-74.86788,40.51823],[-74.86297,40.51911],[-74.85918,40.51704],[-74.85389,40.51861],[-74.8505,40.49776],[-74.85932,40.50041]],[[-75.06674,40.53656],[-75.05398,40.53781],[-75.04973,40.53626],[-75.04695,40.51849],[-75.06569,40.51711]],[[-74.95418,40.3765],[-74.94799,40.37912],[-74.94655,40.3858],[-74.92815,40.36258],[-74.93938,40.35907],[-74.93934,40.35551],[-74.94594,40.35493]],[[-74.98595,40.40671],[-74.98698,40.41052],[-74.98419,40.41364],[-74.97211,40.40961],[-74.96522,40.40597],[-74.96656,40.39814]],[[-74.80671,39.85658],[-74.8037,39.85195],[-74.80835,39.84757],[-74.81196,39.8497],[-74.81573,39.84804],[-74.81841,39.85157],[-74.81648,39.85243],[-74.81949,39.85424],[-74.81638,39.8648],[-74.80851,39.86616],[-74.80457,39.86407],[-74.80731,39.86762],[-74.8056,39.86849],[-74.79587,39.86326],[-74.79306,39.85945],[-74.78988,39.86463],[-74.78508,39.85943],[-74.78705,39.8599],[-74.79081,39.85608],[-74.79426,39.85803],[-74.79551,39.85669],[-74.79216,39.85449],[-74.79612,39.8504],[-74.80219,39.85924],[-74.80641,39.85967],[-74.80671,39.85658]],[[-74.72671,40.13443],[-74.72834,40.13179],[-74.73676,40.13394],[-74.72963,40.14113],[-74.72387,40.13773],[-74.72391,40.13353],[-74.72671,40.13443]],[[-74.83771,40.10072],[-74.83535,40.09559],[-74.83945,40.08943],[-74.82891,40.07113],[-74.85159,40.06305],[-74.86686,40.06334],[-74.88077,40.07955]],[[-74.7084,40.16006],[-74.70072,40.158],[-74.70111,40.14471],[-74.71242,40.13833],[-74.71451,40.14126],[-74.71622,40.14049],[-74.71549,40.14606],[-74.71947,40.1477]],[[-74.91191,40.07011],[-74.9115,40.06213],[-74.9282,40.05722],[-74.93267,40.06882]],[[-75.31674,39.75492],[-75.30724,39.75433],[-75.30271,39.75076],[-75.30153,39.74462],[-75.30987,39.74249],[-75.31692,39.73223],[-75.32009,39.73328],[-75.31981,39.73952],[-75.31557,39.74588],[-75.31674,39.75492]],[[-74.75613,40.38623],[-74.76487,40.385],[-74.77335,40.38112],[-74.77742,40.38688],[-74.75885,40.39686],[-74.75128,40.38765],[-74.75613,40.38623]],[[-74.78238,40.32762],[-74.78542,40.32489],[-74.78439,40.31652],[-74.79345,40.3154],[-74.79342,40.3177],[-74.7972,40.31721],[-74.79615,40.32702],[-74.80041,40.32641],[-74.8007,40.33321],[-74.79632,40.33413],[-74.7964,40.33668],[-74.79339,40.33662],[-74.79262,40.33319],[-74.78193,40.33336],[-74.77752,40.33149],[-74.78238,40.32762]],[[-74.87421,39.74137],[-74.87077,39.7433],[-74.85984,39.72861],[-74.86341,39.72527],[-74.87488,39.72594],[-74.88265,39.71993],[-74.89369,39.72276],[-74.89466,39.72561],[-74.88952,39.73799],[-74.88271,39.73718],[-74.87421,39.74137]],[[-75.62838,40.32611],[-75.63108,40.32746],[-75.63343,40.32461],[-75.63953,40.32858],[-75.64701,40.32835],[-75.65031,40.33195],[-75.64741,40.33343],[-75.64854,40.33639],[-75.64536,40.3377],[-75.64471,40.336],[-75.63424,40.34125],[-75.63393,40.33717],[-75.63052,40.33634],[-75.62868,40.33066],[-75.62561,40.32951]],[[-74.8157,40.1278],[-74.82866,40.14542],[-74.8165,40.14979],[-74.8199,40.15143],[-74.82056,40.1554],[-74.81304,40.15637],[-74.81422,40.14913],[-74.81074,40.14867],[-74.80929,40.15195],[-74.80578,40.15113],[-74.80641,40.14906],[-74.80239,40.15054],[-74.80215,40.14521],[-74.79618,40.14692],[-74.79478,40.13395],[-74.80475,40.13182],[-74.80473,40.12442]],[[-75.33932,40.3317],[-75.34137,40.33041],[-75.33563,40.32474],[-75.33917,40.3211],[-75.33304,40.31615],[-75.32645,40.3207],[-75.31923,40.31647],[-75.31542,40.31996],[-75.32278,40.32441],[-75.31621,40.33108],[-75.32474,40.33656],[-75.33459,40.32882]],[[-75.33304,40.31615],[-75.33508,40.3141],[-75.33031,40.31116],[-75.33295,40.30815],[-75.33153,40.30461],[-75.32677,40.30173],[-75.32282,40.30442],[-75.31939,40.30131],[-75.30766,40.31269]],[[-75.31307,40.36992],[-75.31594,40.36975],[-75.32232,40.36307],[-75.32124,40.36092],[-75.30628,40.34975],[-75.29973,40.34991],[-75.29739,40.35117],[-75.29989,40.3527],[-75.29463,40.35572],[-75.30291,40.3658],[-75.30971,40.37012],[-75.31307,40.36992]],[[-75.30971,40.37012],[-75.31139,40.37532],[-75.28305,40.38893],[-75.27467,40.38374],[-75.28296,40.37911],[-75.27911,40.37657],[-75.28278,40.37284],[-75.27471,40.36781],[-75.28367,40.35931],[-75.29493,40.35248],[-75.29673,40.35352]],[[-74.90731,40.15927],[-74.90952,40.16189],[-74.92402,40.15592],[-74.91734,40.14905],[-74.91506,40.15125],[-74.91279,40.14926],[-74.90679,40.15346],[-74.91188,40.15614],[-74.90731,40.15927]],[[-74.89934,40.13286],[-74.90679,40.13963],[-74.91847,40.14547],[-74.91298,40.14904],[-74.90916,40.14545],[-74.90752,40.1466],[-74.90045,40.14061],[-74.89934,40.13286]],[[-75.17783,40.29586],[-75.18193,40.29204],[-75.19292,40.28828],[-75.20084,40.29227],[-75.18328,40.30705],[-75.18185,40.30605],[-75.18666,40.30425],[-75.18208,40.30153],[-75.17964,40.3037],[-75.17715,40.30212],[-75.1691,40.3055],[-75.16515,40.30173],[-75.15665,40.3052],[-75.1551,40.30306],[-75.15438,40.3008],[-75.15938,40.29627],[-75.16569,40.30017],[-75.18024,40.29741],[-75.17783,40.29586]],[[-74.92626,40.17264],[-74.92195,40.17366],[-74.91706,40.16773],[-74.90867,40.16993],[-74.90603,40.164],[-74.92067,40.15865],[-74.92586,40.16709],[-74.92626,40.17264]],[[-74.92626,40.17264],[-74.92822,40.17904],[-74.92496,40.17942],[-74.92886,40.18386],[-74.92385,40.18573],[-74.91919,40.18323],[-74.91291,40.17272],[-74.91869,40.17123]],[[-75.19385,40.28816],[-75.1901,40.28112],[-75.19472,40.27875],[-75.19977,40.28233],[-75.19874,40.28525],[-75.21112,40.27752],[-75.21643,40.28173],[-75.22344,40.2816],[-75.2183,40.28649],[-75.22582,40.29218],[-75.21905,40.29637],[-75.2205,40.30176],[-75.21814,40.30295],[-75.21718,40.3005],[-75.2114,40.30238],[-75.20784,40.30034],[-75.20864,40.29711],[-75.20084,40.29227]],[[-74.85663,40.09131],[-74.86926,40.09553],[-74.86606,40.1009],[-74.8739,40.09849],[-74.8749,40.10235],[-74.87093,40.10656],[-74.86131,40.10201],[-74.86095,40.10811],[-74.8539,40.11113],[-74.8496,40.10994],[-74.8435,40.11795],[-74.83405,40.10785]],[[-75.48201,40.53339],[-75.48413,40.53064],[-75.48019,40.52857],[-75.48529,40.52764],[-75.48791,40.52934],[-75.50421,40.51674],[-75.51008,40.51777],[-75.51169,40.51961],[-75.51638,40.51942],[-75.51344,40.52161],[-75.51585,40.52437],[-75.51255,40.52748],[-75.51694,40.52993],[-75.5142,40.53306],[-75.50931,40.53225],[-75.50722,40.53597],[-75.5106,40.53783],[-75.51505,40.53712],[-75.51548,40.53526],[-75.52038,40.54019],[-75.51683,40.5419],[-75.51306,40.53982],[-75.50879,40.54053],[-75.50621,40.54348],[-75.49766,40.54497],[-75.48965,40.55306],[-75.48575,40.55195],[-75.48317,40.55645],[-75.479,40.55476],[-75.48186,40.55085],[-75.48201,40.53339]],[[-75.24722,39.9439],[-75.27319,39.93194],[-75.27114,39.92587],[-75.25899,39.93057],[-75.25384,39.92012],[-75.24741,39.91902]],[[-75.37925,39.86174],[-75.38374,39.86239],[-75.38368,39.85852],[-75.38936,39.8594],[-75.39132,39.85107],[-75.3814,39.85025],[-75.37623,39.85587],[-75.36752,39.85195],[-75.3656,39.85728],[-75.37925,39.86174]],[[-75.4368,39.81348],[-75.40881,39.82649],[-75.40917,39.81956],[-75.39773,39.808]],[[-75.41563,39.82344],[-75.41765,39.82588],[-75.41444,39.82732],[-75.4171,39.83128],[-75.40491,39.83775],[-75.40203,39.83307],[-75.39895,39.83383],[-75.38913,39.81294]],[[-75.35044,39.89089],[-75.34858,39.88941],[-75.33804,39.89664],[-75.33973,39.90129],[-75.33808,39.9024],[-75.34037,39.90339],[-75.33828,39.90653],[-75.34325,39.9142],[-75.35197,39.91327],[-75.35352,39.91083],[-75.35828,39.90986],[-75.35821,39.90467],[-75.36189,39.90233],[-75.35691,39.90125],[-75.35543,39.89879],[-75.35887,39.89262],[-75.35044,39.89089]],[[-75.27114,39.92587],[-75.27531,39.92323],[-75.26804,39.91874],[-75.2632,39.91817],[-75.2651,39.9147],[-75.2558,39.91258],[-75.25284,39.91715],[-75.24698,39.91687]],[[-75.26028,39.91316],[-75.26009,39.90951],[-75.25577,39.91007],[-75.25488,39.90847],[-75.25631,39.90342],[-75.26433,39.90384],[-75.2649,39.90534],[-75.27626,39.90004],[-75.2815,39.90742],[-75.2651,39.9147]],[[-75.33268,39.90038],[-75.32854,39.90557],[-75.32224,39.89986],[-75.32594,39.89746],[-75.33268,39.90038]],[[-75.39271,39.89547],[-75.39525,39.8939],[-75.38633,39.88854],[-75.38517,39.88544],[-75.38083,39.88492],[-75.37571,39.8969],[-75.37933,39.8994],[-75.38321,39.89917],[-75.38032,39.90258],[-75.38334,39.9016],[-75.38852,39.90498],[-75.38829,39.90152],[-75.39215,39.90016],[-75.39271,39.89547]],[[-75.32152,39.8763],[-75.31929,39.87432],[-75.33232,39.86707],[-75.3372,39.87826],[-75.32176,39.88834],[-75.32023,39.88685],[-75.31701,39.88826],[-75.31044,39.88022],[-75.32152,39.8763]],[[-75.31044,39.88022],[-75.3068,39.87521],[-75.29838,39.87686],[-75.30361,39.88436],[-75.30032,39.88805],[-75.3065,39.89617],[-75.31455,39.89254],[-75.31625,39.88724]],[[-75.37925,39.86174],[-75.38224,39.86762],[-75.37668,39.87391],[-75.37445,39.86593],[-75.37619,39.86156]],[[-75.3065,39.89617],[-75.30121,39.89769],[-75.29249,39.89263],[-75.28888,39.88644],[-75.28695,39.8869],[-75.28839,39.88086],[-75.29838,39.87686]],[[-75.32866,39.90549],[-75.33152,39.90365],[-75.3348,39.90645],[-75.32768,39.90825],[-75.33117,39.91154],[-75.32853,39.91343],[-75.33259,39.91742],[-75.32904,39.9187],[-75.3249,39.9153],[-75.31986,39.91512],[-75.31935,39.91165],[-75.32854,39.90557]],[[-75.24765,39.96282],[-75.25673,39.96208],[-75.25713,39.96376]],[[-75.38,39.91661],[-75.38607,39.92963],[-75.39459,39.92499],[-75.39899,39.9154],[-75.38293,39.91329],[-75.38324,39.91194],[-75.37806,39.91279],[-75.38,39.91661]],[[-75.39215,39.90016],[-75.39351,39.9044],[-75.39809,39.9068],[-75.39902,39.91231],[-75.4056,39.91914],[-75.40928,39.91985],[-75.40826,39.92516],[-75.41178,39.92951],[-75.41136,39.93332],[-75.41879,39.94027],[-75.41753,39.94372],[-75.43237,39.95024],[-75.42398,39.96248],[-75.42111,39.96131],[-75.41867,39.96322],[-75.41195,39.95599],[-75.404,39.95619],[-75.3945,39.95148],[-75.3914,39.95302],[-75.39128,39.95037],[-75.38239,39.94995],[-75.37768,39.94279],[-75.36915,39.94036],[-75.36947,39.93243],[-75.36471,39.93032],[-75.38094,39.91901]],[[-75.38463,39.91352],[-75.39156,39.90095]],[[-75.26436,39.9356],[-75.26863,39.95124],[-75.28974,39.94311],[-75.28272,39.93044],[-75.27649,39.93494],[-75.27319,39.93194]],[[-75.30216,39.89805],[-75.30574,39.90292],[-75.29454,39.90709],[-75.29298,39.90573],[-75.28656,39.90761],[-75.27952,39.89942],[-75.28962,39.88874]],[[-75.28225,39.93028],[-75.28539,39.92551],[-75.27531,39.92323],[-75.28905,39.917],[-75.28798,39.91542],[-75.29157,39.91381],[-75.2854,39.91385],[-75.28735,39.91282],[-75.28476,39.90971],[-75.28656,39.90761]],[[-75.28839,39.88086],[-75.2764,39.88069],[-75.27249,39.87671],[-75.26532,39.88159]],[[-75.27458,39.9004],[-75.27151,39.89739],[-75.2758,39.89585],[-75.27469,39.89277],[-75.26654,39.89174],[-75.26795,39.8853],[-75.26462,39.88628]],[[-75.3059,39.875],[-75.31432,39.86848],[-75.31653,39.84999]],[[-75.34209,39.84588],[-75.3472,39.85462],[-75.34651,39.86067],[-75.34868,39.86303],[-75.34077,39.86688],[-75.33774,39.86486],[-75.32888,39.86528],[-75.32439,39.86346],[-75.31986,39.85575],[-75.32085,39.84978]],[[-75.29947,39.90488],[-75.30518,39.9076],[-75.30678,39.91146],[-75.28905,39.917]],[[-75.28358,39.93168],[-75.29583,39.92299],[-75.29922,39.92666],[-75.30828,39.92557],[-75.30598,39.92723],[-75.30677,39.93272],[-75.30117,39.93568],[-75.29211,39.93215],[-75.28595,39.93558]],[[-75.29583,39.92299],[-75.29876,39.92149],[-75.29479,39.91643]],[[-75.38636,39.85009],[-75.38498,39.84249],[-75.38882,39.83992],[-75.39277,39.84032],[-75.39687,39.84456],[-75.4029,39.84272],[-75.40808,39.84373],[-75.40491,39.83775]],[[-75.34868,39.86303],[-75.35133,39.86825],[-75.35683,39.86972],[-75.35608,39.87401],[-75.36177,39.87225],[-75.36644,39.87332],[-75.36665,39.8703],[-75.37277,39.87219],[-75.36909,39.87301],[-75.37353,39.87539],[-75.37809,39.87514],[-75.37668,39.87391]],[[-75.3894,39.85844],[-75.39527,39.8637],[-75.39636,39.85502],[-75.40065,39.85739],[-75.40554,39.85628],[-75.41065,39.85952],[-75.41834,39.85629],[-75.40808,39.84373]],[[-75.39601,39.86333],[-75.39839,39.86575],[-75.40706,39.8661],[-75.40866,39.87031],[-75.38615,39.88805]],[[-75.38682,39.88677],[-75.38375,39.88152],[-75.38466,39.87569],[-75.38224,39.87399],[-75.37785,39.87468]],[[-75.82268,39.97583],[-75.79768,39.98165],[-75.79873,39.98797],[-75.80629,39.98859],[-75.80658,39.99065],[-75.81167,39.98964],[-75.81259,39.99181],[-75.82066,39.98992]],[[-75.51328,40.04281],[-75.51029,40.04281],[-75.50754,40.03747],[-75.50252,40.03675],[-75.4997,40.03249],[-75.5004,40.02798],[-75.51498,40.02269],[-75.51958,40.02909],[-75.52447,40.027],[-75.53059,40.03524],[-75.51328,40.04281]],[[-75.8009,39.96416],[-75.8034,39.96679],[-75.80879,39.96596],[-75.81222,39.96072],[-75.80455,39.96158],[-75.80271,39.96093],[-75.80415,39.95681],[-75.79705,39.95691],[-75.79316,39.96291],[-75.8009,39.96416]],[[-75.79768,39.98165],[-75.8009,39.96416]],[[-75.81229,39.96127],[-75.81204,39.95512],[-75.8197,39.9548],[-75.82125,39.95851]],[[-75.54904,40.18962],[-75.54614,40.18895],[-75.53845,40.19404],[-75.53539,40.19187],[-75.53202,40.19521],[-75.52671,40.19145],[-75.5328,40.1864],[-75.53004,40.18464],[-75.5396,40.17495]],[[-75.53182,40.17061],[-75.54144,40.16623],[-75.5548,40.17538],[-75.55488,40.17975],[-75.55779,40.17996],[-75.55742,40.18541],[-75.54638,40.18655]],[[-75.61847,39.95915],[-75.62315,39.96518],[-75.60395,39.97402],[-75.58814,39.95558],[-75.60835,39.94636],[-75.61847,39.95915]],[[-75.22095,40.1681],[-75.23161,40.15973],[-75.22751,40.15716],[-75.22602,40.14858],[-75.22058,40.14536],[-75.21307,40.15199],[-75.21422,40.15886],[-75.22095,40.1681]],[[-75.34689,40.1111],[-75.32735,40.10536],[-75.3408,40.09936],[-75.35222,40.09795],[-75.35688,40.10411],[-75.34817,40.10773],[-75.34689,40.1111]],[[-75.45874,40.20208],[-75.46034,40.19543],[-75.46449,40.19402],[-75.4714,40.18645],[-75.47356,40.18771],[-75.47572,40.18551],[-75.496,40.19746],[-75.49084,40.2025],[-75.47027,40.21284],[-75.46066,40.20699],[-75.46227,40.2054],[-75.45874,40.20208]],[[-75.47572,40.18551],[-75.46045,40.17649],[-75.4591,40.17781],[-75.45016,40.17399],[-75.44737,40.18192],[-75.45009,40.20025],[-75.45874,40.20208]],[[-75.30596,40.0691],[-75.31566,40.07462],[-75.31934,40.08074],[-75.32918,40.07659],[-75.32657,40.06994],[-75.32895,40.06889],[-75.32316,40.06179],[-75.3062,40.06533],[-75.30596,40.0691]],[[-75.30596,40.0691],[-75.29894,40.06943],[-75.28998,40.07857],[-75.29487,40.08152],[-75.29381,40.08255],[-75.30508,40.08747],[-75.31642,40.07583]],[[-75.50717,40.3996],[-75.51126,40.40026],[-75.51072,40.40274],[-75.51699,40.40661],[-75.5041,40.41351],[-75.49632,40.40418],[-75.50086,40.40201],[-75.49967,40.4002],[-75.50356,40.39877],[-75.50537,40.40151],[-75.50717,40.3996]],[[-75.1048,40.19105],[-75.11079,40.18524],[-75.11236,40.1775],[-75.11607,40.17323],[-75.123,40.17133],[-75.11967,40.1693],[-75.10634,40.16486],[-75.09021,40.18248]],[[-75.12555,40.10359],[-75.12587,40.10003],[-75.13087,40.10265],[-75.13801,40.09665],[-75.1389,40.09342],[-75.13172,40.08932],[-75.12656,40.09001],[-75.12124,40.09683],[-75.12077,40.10128],[-75.12395,40.10094],[-75.12555,40.10359]],[[-75.27166,40.2465],[-75.27834,40.25065],[-75.27476,40.25328],[-75.287,40.26134],[-75.30346,40.2436],[-75.29005,40.23514],[-75.29193,40.23323],[-75.28062,40.22651],[-75.27963,40.223],[-75.27151,40.23056],[-75.26756,40.23192],[-75.26248,40.22889],[-75.25432,40.2334],[-75.27166,40.2465]],[[-75.37613,40.15586],[-75.35532,40.17577],[-75.29815,40.14316],[-75.31663,40.12482],[-75.35425,40.14748],[-75.37613,40.15586]],[[-75.31663,40.12482],[-75.32735,40.10536]],[[-75.34689,40.1111],[-75.35566,40.11517],[-75.36573,40.1164],[-75.36267,40.11945],[-75.36517,40.1209],[-75.34453,40.14175]],[[-75.49632,40.40418],[-75.49049,40.39775],[-75.49211,40.39622],[-75.48599,40.3858],[-75.48788,40.38448],[-75.4917,40.38326],[-75.50024,40.38841],[-75.50717,40.3996]],[[-75.48599,40.3858],[-75.47254,40.37736],[-75.47214,40.37458],[-75.47857,40.37703],[-75.48411,40.36536],[-75.49542,40.38069],[-75.4917,40.38326]],[[-75.67612,40.24269],[-75.67846,40.24789],[-75.66865,40.25927],[-75.67553,40.25693],[-75.6781,40.25815],[-75.67043,40.26116],[-75.66836,40.26664],[-75.66299,40.26733],[-75.66579,40.26254],[-75.66244,40.26642],[-75.64018,40.26059],[-75.63447,40.26753],[-75.62204,40.25993],[-75.62828,40.25584],[-75.61427,40.24723],[-75.61128,40.24885],[-75.61053,40.24309],[-75.62802,40.23261]],[[-75.08243,40.08297],[-75.08222,40.08609],[-75.09082,40.0859],[-75.09319,40.08418],[-75.09849,40.08571],[-75.09992,40.08428],[-75.09034,40.07812],[-75.09225,40.07627],[-75.09036,40.07509]],[[-75.35828,39.90986],[-75.35967,39.91866],[-75.36383,39.91955],[-75.36078,39.92428],[-75.36488,39.92135],[-75.36383,39.92406],[-75.36688,39.92676],[-75.36471,39.93032],[-75.34704,39.94262],[-75.34831,39.94512],[-75.33531,39.95516],[-75.3281,39.94896],[-75.32749,39.94489],[-75.31953,39.94287],[-75.31402,39.94446],[-75.30819,39.94058],[-75.31026,39.91891],[-75.31935,39.91165]],[[-75.3569,39.89151],[-75.35711,39.88674],[-75.35044,39.89089]],[[-75.35654,39.87137],[-75.35031,39.88082],[-75.35088,39.88365],[-75.35495,39.88388],[-75.3561,39.8867]],[[-75.40433,40.02742],[-75.37418,39.99024],[-75.36307,39.99799],[-75.32747,40.01031],[-75.3291,40.01249],[-75.3207,40.01621]],[[-75.29867,40.25042],[-75.33673,40.27355],[-75.33834,40.27259],[-75.35038,40.27993],[-75.35548,40.27479],[-75.38569,40.29272],[-75.40579,40.30171],[-75.41804,40.31037],[-75.42929,40.31485],[-75.43542,40.31974],[-75.43589,40.32441],[-75.44303,40.33119],[-75.44681,40.32713],[-75.45423,40.32559],[-75.46431,40.31904],[-75.46828,40.32006],[-75.47493,40.31461],[-75.4662,40.31274],[-75.46597,40.30215],[-75.45718,40.3029],[-75.45479,40.28635],[-75.45465,40.27523],[-75.46554,40.26805],[-75.46074,40.25141],[-75.46569,40.24714],[-75.4693,40.25218],[-75.4699,40.2571],[-75.46575,40.26019],[-75.47035,40.25945],[-75.47175,40.26235],[-75.46694,40.26776],[-75.46464,40.26101],[-75.45919,40.26506],[-75.44386,40.25623],[-75.45101,40.25398],[-75.45099,40.25018],[-75.45626,40.25092],[-75.45168,40.23887],[-75.45009,40.20025],[-75.37613,40.15586],[-75.42465,40.10853],[-75.4176,40.10791],[-75.3945,40.11735],[-75.38184,40.11827],[-75.34742,40.10971]],[[-75.70599,40.49896],[-75.70482,40.49535],[-75.7008,40.49559],[-75.7017,40.49821],[-75.69487,40.4996],[-75.68983,40.50496],[-75.69253,40.50486],[-75.69199,40.50731],[-75.69834,40.50637],[-75.69965,40.51011],[-75.71191,40.50802],[-75.7102,40.49757],[-75.70599,40.49896]],[[-75.7695,40.48108],[-75.75568,40.48579],[-75.75121,40.47856],[-75.76052,40.4751],[-75.7695,40.48108]],[[-75.76787,40.53458],[-75.78216,40.53103],[-75.78027,40.52494],[-75.78164,40.52663],[-75.78251,40.52179],[-75.78727,40.5186],[-75.79269,40.52603],[-75.78944,40.52896],[-75.7942,40.52851],[-75.79447,40.52139],[-75.79823,40.51812],[-75.79062,40.51515],[-75.78577,40.51692],[-75.77919,40.50974],[-75.77313,40.51201],[-75.77127,40.50884],[-75.76387,40.51151],[-75.76899,40.51888],[-75.76601,40.51969],[-75.76817,40.521],[-75.76496,40.52554],[-75.76765,40.528],[-75.76428,40.52939],[-75.76787,40.53458]],[[-75.80875,40.2521],[-75.81296,40.25467],[-75.82615,40.25675]],[[-75.82615,40.25675],[-75.8193,40.27026],[-75.81109,40.26781],[-75.80569,40.27038],[-75.79636,40.27062],[-75.80045,40.25312],[-75.80589,40.25394],[-75.80875,40.2521]],[[-75.63943,40.36855],[-75.63055,40.37783],[-75.62376,40.37671],[-75.62808,40.36284],[-75.63943,40.36855]],[[-75.58902,40.39614],[-75.59103,40.39407],[-75.59542,40.39667],[-75.59407,40.40147],[-75.59617,40.40303],[-75.58578,40.40709],[-75.57784,40.40211],[-75.58041,40.39744],[-75.58685,40.39488],[-75.58902,40.39614]],[[-74.82605,40.24251],[-74.83022,40.2381],[-74.82409,40.23391],[-74.84218,40.23162],[-74.8433,40.23811],[-74.84587,40.23661],[-74.85164,40.2474],[-74.84239,40.25072]],[[-75.38875,40.41619],[-75.3705,40.41588],[-75.36948,40.41764],[-75.3679,40.415],[-75.37125,40.41479],[-75.37651,40.40793],[-75.38058,40.40798],[-75.3921,40.41364],[-75.39238,40.41605],[-75.38875,40.41619]],[[-75.26374,40.34682],[-75.27227,40.34076],[-75.27495,40.34334],[-75.27748,40.34149],[-75.27926,40.34263],[-75.27659,40.3454],[-75.27878,40.34746],[-75.27665,40.35085],[-75.2697,40.35442],[-75.26698,40.35232],[-75.26803,40.34954],[-75.26374,40.34682]],[[-75.31894,40.47907],[-75.31792,40.46917],[-75.32042,40.46555],[-75.32396,40.46617],[-75.32418,40.47871],[-75.31894,40.47907]],[[-75.36926,40.43729],[-75.36989,40.44108],[-75.36685,40.44374],[-75.36013,40.44324],[-75.36185,40.44938],[-75.35251,40.44537],[-75.34512,40.44631],[-75.34619,40.44846],[-75.34243,40.44887],[-75.34199,40.44662],[-75.33539,40.44744],[-75.33358,40.45162],[-75.33324,40.44948],[-75.32919,40.44992],[-75.32612,40.44019],[-75.31901,40.43849],[-75.31917,40.43646],[-75.33646,40.4355],[-75.34571,40.42721],[-75.35081,40.42617],[-75.35417,40.43503],[-75.35727,40.43483],[-75.35814,40.43731],[-75.36298,40.43599],[-75.36926,40.43729]],[[-74.94546,40.34974],[-74.94891,40.35034],[-74.9493,40.35329],[-74.96642,40.35141],[-74.96852,40.36583],[-74.96491,40.36647],[-74.96643,40.37206],[-74.95298,40.37351]],[[-74.76067,40.1993],[-74.77475,40.1939],[-74.78378,40.20355],[-74.78861,40.20077],[-74.7933,40.20314],[-74.80065,40.20299],[-74.80017,40.20648],[-74.80324,40.2075],[-74.79704,40.20767],[-74.79786,40.20968],[-74.7943,40.20949],[-74.79381,40.21148],[-74.7915,40.20969],[-74.79253,40.21206],[-74.78701,40.21463],[-74.78905,40.21701],[-74.78201,40.22189]],[[-75.07341,40.21563],[-75.07977,40.2047],[-75.07295,40.20081],[-75.0694,40.20438],[-75.07215,40.20609],[-75.06618,40.21138],[-75.07341,40.21563]],[[-75.19714,40.36811],[-75.20426,40.3661],[-75.2141,40.37307],[-75.20437,40.3827],[-75.2039,40.37927],[-75.19377,40.3722],[-75.19714,40.36811]],[[-75.12878,40.32777],[-75.12407,40.325],[-75.12861,40.3207],[-75.1245,40.31809],[-75.11877,40.32181],[-75.11684,40.32715],[-75.11501,40.326],[-75.11349,40.32751],[-75.10876,40.32449],[-75.11357,40.3197],[-75.11589,40.32007],[-75.10553,40.31389],[-75.11581,40.31273],[-75.11866,40.30894],[-75.12145,40.31064],[-75.12366,40.30854],[-75.12144,40.30755],[-75.12253,40.2996],[-75.12793,40.29804],[-75.13182,40.3047],[-75.13617,40.30152],[-75.14846,40.30952],[-75.14382,40.31218],[-75.14068,40.31024],[-75.13758,40.3131],[-75.14312,40.31778],[-75.13658,40.31416],[-75.13518,40.31542],[-75.14363,40.32213],[-75.13846,40.32682],[-75.13073,40.32204],[-75.12878,40.32777]],[[-75.59237,40.51275],[-75.58901,40.50616],[-75.59795,40.50202],[-75.59979,40.50355],[-75.6017,40.50228],[-75.60629,40.5072],[-75.6107,40.50581],[-75.6125,40.50896],[-75.60608,40.5147],[-75.59327,40.51427],[-75.59237,40.51275]],[[-75.48317,40.55645],[-75.48774,40.55865],[-75.4888,40.5566],[-75.50161,40.56171],[-75.4983,40.56415],[-75.49862,40.56787],[-75.51146,40.56379],[-75.50536,40.55832],[-75.5071,40.55615],[-75.49865,40.55361],[-75.50285,40.54998],[-75.50526,40.55213],[-75.50292,40.55394],[-75.51644,40.56243],[-75.51398,40.56545],[-75.50077,40.56925],[-75.49924,40.57312]],[[-75.44805,40.57194],[-75.45409,40.56739],[-75.45934,40.57385]],[[-75.46036,40.57022],[-75.45773,40.56472],[-75.47501,40.55334],[-75.479,40.55476]],[[-75.38036,40.50669],[-75.38138,40.51771],[-75.38486,40.51851],[-75.38533,40.51591],[-75.39261,40.51772],[-75.39596,40.51459],[-75.39896,40.51499],[-75.39993,40.51754],[-75.4029,40.51652],[-75.40323,40.51132],[-75.39978,40.51161],[-75.39761,40.50535],[-75.40224,40.50433],[-75.40173,40.50123],[-75.39641,40.50183],[-75.39616,40.50543],[-75.39612,40.50396],[-75.38932,40.50414],[-75.38826,40.50166]],[[-75.54235,40.51016],[-75.54085,40.50548],[-75.54531,40.5068],[-75.54732,40.50496],[-75.54888,40.50823],[-75.56123,40.50925],[-75.56411,40.52936],[-75.55481,40.52731],[-75.55035,40.51892],[-75.54672,40.51986],[-75.54982,40.5181],[-75.54235,40.51016]],[[-75.26326,39.93986],[-75.26531,39.94841],[-75.26018,39.94767],[-75.25575,39.9441],[-75.25613,39.94111],[-75.26326,39.93986]],[[-75.48863,39.90017],[-75.47503,39.90642],[-75.47011,39.90087],[-75.46721,39.90384],[-75.46039,39.90029],[-75.45815,39.90189],[-75.45039,39.89428],[-75.45943,39.88712],[-75.45913,39.88268],[-75.46463,39.87915],[-75.46796,39.87273],[-75.48863,39.90017]],[[-75.7809,39.81937],[-75.78629,39.8188],[-75.78872,39.82221],[-75.78853,39.8289],[-75.7762,39.83067],[-75.77521,39.81999],[-75.7809,39.81937]],[[-75.70582,40.01337],[-75.7,40.01384],[-75.70123,40.01783],[-75.70442,40.01729],[-75.70545,40.02041],[-75.69457,40.02138],[-75.69109,40.01456],[-75.6842,40.01644],[-75.68059,40.00682],[-75.67602,40.00716],[-75.67572,40.00543],[-75.69312,40.00178],[-75.70025,40.00256],[-75.70007,40.00114],[-75.71535,39.99542],[-75.72707,39.99868],[-75.72461,40.00314],[-75.7166,40.00436],[-75.71854,40.01233],[-75.70582,40.01337]],[[-75.527,40.14952],[-75.5413,40.13493],[-75.53502,40.13342],[-75.53682,40.12898],[-75.54109,40.1303],[-75.54707,40.12845],[-75.53762,40.12287],[-75.53446,40.12489],[-75.536,40.12334],[-75.53109,40.12029],[-75.5294,40.12194],[-75.51283,40.11665],[-75.49962,40.12998]],[[-75.07247,40.15755],[-75.07668,40.16006],[-75.08158,40.15531],[-75.08587,40.15784],[-75.09388,40.15569],[-75.09234,40.15297],[-75.08988,40.1551],[-75.08702,40.15207],[-75.08524,40.15378],[-75.08089,40.15042],[-75.08432,40.14704],[-75.08239,40.14436],[-75.07695,40.14566],[-75.07443,40.13522],[-75.07024,40.13351],[-75.07223,40.12803],[-75.07039,40.12633],[-75.06712,40.12842],[-75.06494,40.12652],[-75.0658,40.1288],[-75.06187,40.13081],[-75.05472,40.12522],[-75.04839,40.13019],[-75.04993,40.13116],[-75.04552,40.1312],[-75.05383,40.1361],[-75.04714,40.14258],[-75.05131,40.14505],[-75.0543,40.14214],[-75.06058,40.1429],[-75.06123,40.13905],[-75.06708,40.14142],[-75.06802,40.14471],[-75.07281,40.14784],[-75.06819,40.14915],[-75.07454,40.15182],[-75.07247,40.15755]],[[-75.47658,40.33714],[-75.47845,40.33354],[-75.4744,40.33124],[-75.47156,40.33411],[-75.46612,40.33283],[-75.46114,40.3361],[-75.4709,40.34004],[-75.47129,40.34243],[-75.47246,40.34059],[-75.47769,40.34037],[-75.47341,40.33861],[-75.47658,40.33714]],[[-75.29411,40.27989],[-75.28844,40.27597],[-75.30076,40.26684],[-75.30383,40.26869],[-75.3009,40.27153],[-75.30787,40.27436],[-75.30473,40.27752],[-75.30716,40.27917],[-75.29778,40.28707],[-75.29288,40.28455],[-75.29579,40.28139],[-75.29411,40.27989]],[[-75.25891,40.00631],[-75.25971,40.00501],[-75.25508,40.00374],[-75.26275,40.00065],[-75.26735,40.00351],[-75.27294,40.01296],[-75.2658,40.01338],[-75.25235,40.00853],[-75.25891,40.00631]],[[-75.27483,40.20362],[-75.27474,40.20661],[-75.26968,40.20725],[-75.26415,40.21378],[-75.27305,40.21917],[-75.27788,40.21697],[-75.2845,40.20742],[-75.27483,40.20362]],[[-75.58,39.73745],[-75.60077,39.73008],[-75.60729,39.73534],[-75.60238,39.74464],[-75.59939,39.74301],[-75.58795,39.74628],[-75.58138,39.74332],[-75.58398,39.73913],[-75.58,39.73745]],[[-75.50991,39.68804],[-75.53244,39.7067],[-75.53527,39.71826],[-75.56054,39.73002],[-75.56325,39.72337],[-75.56392,39.72928],[-75.56667,39.72897],[-75.56653,39.73144],[-75.57022,39.72929],[-75.57698,39.74192],[-75.58,39.73745]],[[-75.47078,39.74202],[-75.50607,39.74215],[-75.51605,39.746],[-75.5196,39.75114],[-75.51727,39.75355],[-75.52121,39.75183],[-75.52612,39.75814],[-75.51841,39.76252],[-75.52073,39.76566],[-75.51799,39.76511],[-75.51791,39.76722],[-75.52592,39.77304],[-75.53547,39.76827],[-75.53294,39.76928],[-75.5313,39.7669],[-75.53464,39.76539],[-75.53547,39.76726],[-75.5572,39.76136],[-75.55669,39.76575],[-75.5594,39.76872],[-75.57007,39.77106],[-75.57613,39.76899],[-75.58053,39.76282],[-75.57524,39.75928],[-75.57859,39.75441],[-75.58748,39.75811],[-75.58846,39.75248],[-75.58203,39.74986],[-75.5834,39.74781],[-75.57953,39.74639],[-75.58138,39.74332]],[[-75.78859,39.68786],[-75.78477,39.68786],[-75.78502,39.69375],[-75.78317,39.6915],[-75.78072,39.69213],[-75.78735,39.69679],[-75.78705,39.70109],[-75.78159,39.69796],[-75.7741,39.69914],[-75.77298,39.70357],[-75.76684,39.70313],[-75.76672,39.6984],[-75.75921,39.69915],[-75.75897,39.69629],[-75.75076,39.69508],[-75.75333,39.69615],[-75.75246,39.69829],[-75.75002,39.69756],[-75.74485,39.70981],[-75.73941,39.71493],[-75.73307,39.70443],[-75.73932,39.7021],[-75.74487,39.69005],[-75.73791,39.692],[-75.7351,39.6994],[-75.73175,39.69817],[-75.73401,39.69241],[-75.72367,39.69255],[-75.72356,39.68724],[-75.72773,39.68691],[-75.72708,39.68183],[-75.73063,39.68094],[-75.72898,39.67717]],[[-75.78859,39.68565],[-75.78555,39.68553],[-75.783,39.68182],[-75.7799,39.68256],[-75.78215,39.68636],[-75.78859,39.68726]],[[-74.7319,40.24207],[-74.72966,40.24651],[-74.71933,40.24934],[-74.71414,40.26376],[-74.7089,40.26521],[-74.70729,40.26836],[-74.69719,40.26946],[-74.68893,40.26787],[-74.68449,40.27059],[-74.67989,40.2706]],[[-74.76189,40.28422],[-74.74326,40.3317],[-74.71412,40.3602],[-74.66418,40.26713]],[[-74.72209,40.37519],[-74.71412,40.3602]],[[-74.80428,39.67731],[-74.86154,39.73106]],[[-74.90796,39.78376],[-74.90255,39.7908]],[[-74.9133,39.77655],[-74.87421,39.74137]],[[-74.96837,39.76714],[-75.02967,39.71335],[-75.09171,39.70766]],[[-74.95691,39.81671],[-74.94543,39.81464],[-74.929,39.82068],[-74.90861,39.80949]],[[-74.9858,40.04101],[-74.96489,40.04416],[-74.94967,40.04379],[-74.93159,40.02926],[-74.92555,40.03294],[-74.92476,40.0363],[-74.93345,40.05575],[-74.92822,40.05727]],[[-75.01922,39.96746],[-75.0055,39.97298],[-75.00235,39.9677],[-74.99565,39.96653],[-74.98224,39.95354],[-74.97503,39.95311],[-74.96867,39.94544],[-74.96676,39.9378],[-74.98372,39.92694]],[[-74.82867,40.1203],[-74.81863,40.11552],[-74.80229,40.07301],[-74.8078,40.0713],[-74.81012,40.07677],[-74.81298,40.07449],[-74.8092,40.05086],[-74.79754,40.04418],[-74.79997,40.03982],[-74.80445,40.03715],[-74.82138,40.03696],[-74.82454,40.02488],[-74.84199,40.03085],[-74.85565,40.03199],[-74.85184,40.03637],[-74.85707,40.03888],[-74.86324,40.03779],[-74.86783,40.04431],[-74.87793,40.0435],[-74.87805,40.04205],[-74.88205,40.05336],[-74.88486,40.05307],[-74.88623,40.05773],[-74.89103,40.05649],[-74.899,40.07372]],[[-74.9367,40.03343],[-74.96161,40.02413],[-74.97281,40.04228]],[[-74.99065,40.03677],[-74.9583,39.99181],[-74.90458,40.01364],[-74.92082,40.02378],[-74.92215,40.02907],[-74.93159,40.02926]],[[-74.7612,40.12136],[-74.76948,40.11145],[-74.76327,40.11164],[-74.76308,40.1042],[-74.7592,40.10055],[-74.75621,40.10058],[-74.75736,40.09789],[-74.75383,40.09751],[-74.75556,40.09468],[-74.75898,40.09451],[-74.76619,40.07876],[-74.76862,40.07839],[-74.76923,40.07583],[-74.76752,40.07614],[-74.77225,40.06685],[-74.76722,40.06946],[-74.76451,40.06454],[-74.7561,40.06498],[-74.75339,40.06108],[-74.75502,40.05613],[-74.74515,40.05161],[-74.74129,40.05396],[-74.72943,40.05355],[-74.7254,40.05702],[-74.69535,40.05561],[-74.67889,40.05947]],[[-74.67969,40.10288],[-74.68524,40.10551],[-74.68804,40.11034],[-74.69624,40.11349],[-74.69893,40.11797],[-74.72287,40.11319],[-74.74132,40.12714],[-74.75023,40.1221],[-74.7612,40.12136]],[[-74.88898,40.05595],[-74.92555,40.03294]],[[-74.81247,39.78527],[-74.79863,39.8255],[-74.77045,39.83778],[-74.75424,39.84255],[-74.73885,39.81834],[-74.67981,39.80427]],[[-74.67777,39.7337],[-74.72422,39.72229]],[[-74.67184,39.87827],[-74.76785,39.86288],[-74.78914,39.89259],[-74.78491,39.90213],[-74.78949,39.90682],[-74.79128,39.91327],[-74.78827,39.92375],[-74.78249,39.9275],[-74.78709,39.93272],[-74.77843,39.94033],[-74.7811,39.9455],[-74.78342,39.94462],[-74.7807,39.94988],[-74.75451,39.95809],[-74.75012,39.97834],[-74.73515,39.97707],[-74.73588,39.98224],[-74.73482,39.97993],[-74.7308,39.9816],[-74.72784,39.97973],[-74.72051,39.98115],[-74.72179,39.97874],[-74.71589,39.97547],[-74.71501,39.96261],[-74.70874,39.96455],[-74.70841,39.96046],[-74.697,39.95407],[-74.69864,39.94315],[-74.69449,39.94303],[-74.69468,39.93779],[-74.67959,39.93284]],[[-74.77456,40.007],[-74.76799,39.97937],[-74.79656,39.98466],[-74.80303,39.98961],[-74.80595,39.99716],[-74.80288,39.99812],[-74.79613,40.01112],[-74.77456,40.007]],[[-74.77646,40.12513],[-74.7612,40.12136]],[[-74.77225,40.06685],[-74.77562,40.06365],[-74.78038,40.06674],[-74.78301,40.06615],[-74.78495,40.06082],[-74.78977,40.06697],[-74.79733,40.06197],[-74.80049,40.06807],[-74.79839,40.07182],[-74.80229,40.07301]],[[-74.69893,40.11797],[-74.69095,40.12419],[-74.67997,40.12549]],[[-74.67997,40.12549],[-74.68211,40.16355],[-74.68001,40.1681],[-74.67773,40.16741]],[[-74.85565,40.03199],[-74.85773,40.03234],[-74.86091,40.02527],[-74.86443,40.01216],[-74.87137,40.01218],[-74.87224,40.00983],[-74.8679,40.0085],[-74.87242,39.99771],[-74.88731,40.00261],[-74.8883,40.00735],[-74.90458,40.01364]],[[-74.86286,39.78533],[-74.86243,39.93123],[-74.79295,39.93606],[-74.78709,39.93272]],[[-74.75424,39.84255],[-74.76764,39.86292]],[[-74.8007,39.9882],[-74.80372,39.98738],[-74.80841,39.97891],[-74.81411,39.97481],[-74.84282,39.95851],[-74.84897,39.94686],[-74.86243,39.94308],[-74.86305,39.9625],[-74.85708,39.97195],[-74.86026,39.9758],[-74.85175,39.98311],[-74.85262,39.98852],[-74.84855,39.99192],[-74.86121,39.99656],[-74.85776,39.99796],[-74.85231,39.99634],[-74.84911,39.99881],[-74.84374,39.99921],[-74.84149,39.99729],[-74.83702,39.99911],[-74.83129,39.99479],[-74.82754,39.99706],[-74.82503,39.99433],[-74.8258,39.99663],[-74.82235,39.99464],[-74.81795,39.99823],[-74.81414,39.99473],[-74.8138,39.99712],[-74.80595,39.99716]],[[-74.86247,39.91983],[-74.95722,39.91428]],[[-74.86243,39.94308],[-74.86243,39.93123]],[[-74.75012,39.97834],[-74.76341,39.98044],[-74.76799,39.97937]],[[-74.67842,40.00011],[-74.70317,39.99242],[-74.79754,40.04418]],[[-74.9583,39.99181],[-75.0055,39.97298]],[[-74.73606,39.98208],[-74.73327,40.00898]],[[-74.77947,40.00722],[-74.77128,40.02978]],[[-74.88223,40.00075],[-74.8885,39.9915],[-74.88831,39.98641],[-74.96676,39.9378]],[[-74.87242,39.99771],[-74.86121,39.99656]],[[-74.6814,39.96671],[-74.69796,39.96685],[-74.69041,39.97642],[-74.67987,39.9761]],[[-74.67603,40.47065],[-74.7063,40.46841],[-74.71448,40.4422],[-74.73929,40.43986],[-74.75202,40.43138]],[[-74.77476,40.50418],[-74.76736,40.50345],[-74.75508,40.50697],[-74.74815,40.50547],[-74.74355,40.502],[-74.72775,40.50421],[-74.72548,40.50679],[-74.72931,40.51487],[-74.72791,40.51978],[-74.71394,40.51728],[-74.70417,40.52068],[-74.70311,40.52415],[-74.70789,40.52949],[-74.70532,40.53257],[-74.70933,40.53722],[-74.69832,40.54214],[-74.69749,40.54611],[-74.68741,40.55535],[-74.68709,40.55936],[-74.67987,40.56425]],[[-74.67983,40.54901],[-74.68741,40.55535]],[[-74.97181,40.57057],[-74.97577,40.56654],[-74.9904,40.56025],[-74.95331,40.50337],[-74.88107,40.57658]],[[-74.95331,40.50337],[-75.04381,40.41239]],[[-74.9491,40.37838],[-74.94651,40.38621],[-74.92873,40.39727],[-74.92061,40.40618],[-74.91288,40.41887],[-74.916,40.42484],[-74.90372,40.4358],[-74.89817,40.44413],[-74.874,40.44676],[-74.87807,40.45802],[-74.88487,40.46712],[-74.89699,40.47248],[-74.90049,40.47796],[-74.91407,40.48173],[-74.91595,40.48556],[-74.9222,40.48571],[-74.9299,40.50099],[-74.93055,40.51177],[-74.93694,40.52015]],[[-74.83036,40.38208],[-74.83537,40.39292],[-74.84596,40.39654],[-74.86121,40.40595],[-74.86169,40.4175],[-74.86413,40.42111],[-74.8691,40.41936],[-74.86956,40.42387],[-74.88751,40.40874],[-74.89189,40.41018],[-74.89397,40.42511],[-74.91288,40.41887]],[[-74.78251,40.48777],[-74.78653,40.48516],[-74.8053,40.48293],[-74.81806,40.47779],[-74.82579,40.4707],[-74.83004,40.46024],[-74.85625,40.44168],[-74.85821,40.44591],[-74.87282,40.44071],[-74.874,40.44676]],[[-74.79788,40.51564],[-74.83098,40.52195],[-74.83603,40.5253],[-74.83781,40.52839],[-74.83433,40.53771],[-74.84441,40.53948],[-74.85667,40.55626],[-74.85817,40.56219],[-74.85603,40.56624],[-74.86598,40.5679],[-74.86747,40.57017]],[[-75.04963,40.53586],[-74.9904,40.56025]],[[-75.08717,40.55633],[-75.0837,40.55966],[-75.07637,40.55714],[-75.06147,40.56115],[-75.06052,40.57059]],[[-75.43571,39.98543],[-75.43834,39.97989],[-75.43526,39.97178],[-75.43023,39.9713],[-75.42398,39.96248]],[[-75.41414,39.95891],[-75.37238,39.98801],[-75.37418,39.99024]],[[-75.53059,40.03524],[-75.54393,40.02943],[-75.54288,40.02624],[-75.53597,40.01013],[-75.50814,39.9766],[-75.51645,39.97279],[-75.50212,39.95436]],[[-75.51328,40.04281],[-75.49429,40.05007],[-75.48269,40.03455],[-75.47917,40.036],[-75.44837,39.99721]],[[-75.52388,39.94411],[-75.59636,39.91103],[-75.61089,39.9293],[-75.51645,39.97279]],[[-75.47917,40.036],[-75.46716,40.04083],[-75.46469,40.03719],[-75.44643,40.04552],[-75.42728,40.05839],[-75.41499,40.04179]],[[-75.59995,39.70921],[-75.60399,39.71118],[-75.61389,39.70922],[-75.61448,39.71122],[-75.61149,39.71159],[-75.61353,39.71146],[-75.61436,39.71692],[-75.60852,39.71982],[-75.60511,39.71511],[-75.60283,39.71607],[-75.60403,39.71254],[-75.57959,39.71906],[-75.59295,39.71507],[-75.59373,39.71076],[-75.59995,39.70921]],[[-75.49012,39.81473],[-75.48574,39.81346],[-75.48413,39.81499],[-75.48012,39.81259],[-75.49182,39.80665],[-75.49552,39.81139],[-75.49012,39.81473]],[[-75.50704,40.04549],[-75.53026,40.0748],[-75.4566,40.09386]],[[-75.53026,40.0748],[-75.55051,40.07025],[-75.61327,40.05033],[-75.61853,40.05608],[-75.55399,40.12171],[-75.5388,40.11334],[-75.50246,40.08516],[-75.49665,40.0835]],[[-75.54393,40.02943],[-75.57527,40.01658],[-75.60068,40.05453]],[[-75.55399,40.12171],[-75.54723,40.12856]],[[-75.58126,40.09403],[-75.60648,40.10811],[-75.54555,40.17008]],[[-75.61853,40.05608],[-75.66374,40.08237],[-75.62701,40.12067],[-75.60648,40.10811]],[[-75.54787,39.95817],[-75.56586,39.98273],[-75.5683,39.98162],[-75.58128,39.99834],[-75.57529,40.00121],[-75.58433,40.01264],[-75.57527,40.01658]],[[-75.62315,39.96518],[-75.64129,39.98907],[-75.58433,40.01264]],[[-75.59928,39.93463],[-75.60835,39.94636]],[[-75.64129,39.98907],[-75.67382,40.03189],[-75.61327,40.05033]],[[-75.67382,40.03189],[-75.70772,40.02842],[-75.70754,40.04254],[-75.71181,40.04332],[-75.71507,40.04719],[-75.7037,40.05818],[-75.69332,40.06124],[-75.69133,40.06464],[-75.67665,40.06998],[-75.66859,40.07664],[-75.65619,40.07806]],[[-75.66374,40.08237],[-75.68581,40.09493],[-75.67786,40.10212],[-75.67642,40.10017],[-75.66861,40.10363],[-75.67322,40.11223],[-75.69753,40.10174],[-75.70646,40.10713],[-75.70397,40.1118],[-75.70947,40.11531],[-75.67202,40.15028],[-75.66698,40.1487],[-75.65283,40.15839],[-75.64879,40.15509],[-75.64121,40.15575],[-75.62788,40.15098],[-75.62102,40.15208],[-75.62078,40.14772],[-75.6152,40.14281],[-75.60852,40.14492],[-75.6002,40.15289],[-75.59447,40.15113],[-75.59279,40.14311],[-75.58674,40.1424],[-75.58218,40.13836],[-75.57764,40.13781]],[[-75.57957,40.20089],[-75.61228,40.16648],[-75.64128,40.18342],[-75.66566,40.15869],[-75.65833,40.15623]],[[-75.71507,40.04719],[-75.72517,40.05282],[-75.73111,40.04949],[-75.74364,40.0517],[-75.74452,40.06004],[-75.74143,40.06273],[-75.74294,40.06584],[-75.73026,40.06691],[-75.73817,40.09863],[-75.7339,40.09974],[-75.73025,40.10601],[-75.72082,40.10718],[-75.71501,40.11883],[-75.70947,40.11531]],[[-75.73817,40.09863],[-75.75015,40.09996],[-75.7654,40.12437],[-75.77765,40.12342],[-75.78027,40.12125],[-75.77976,40.11605],[-75.78339,40.11754],[-75.80028,40.13112],[-75.80036,40.14092],[-75.81048,40.15475],[-75.79922,40.15564],[-75.78527,40.1535],[-75.77944,40.14798],[-75.77167,40.1489],[-75.76749,40.14723],[-75.76298,40.14965],[-75.75457,40.14655],[-75.75234,40.14889],[-75.74571,40.14987],[-75.73724,40.14838],[-75.70798,40.15586],[-75.70001,40.16202],[-75.69319,40.16341],[-75.69309,40.16753],[-75.67202,40.15028]],[[-75.64128,40.18342],[-75.64653,40.19079],[-75.65436,40.191],[-75.66076,40.19463],[-75.6565,40.19652],[-75.65461,40.20471],[-75.64824,40.20534],[-75.62238,40.23086]],[[-75.59264,40.22549],[-75.53569,40.28051],[-75.47071,40.24461],[-75.53004,40.18464]],[[-75.62903,40.26419],[-75.6214,40.27153],[-75.61541,40.27285],[-75.61121,40.277],[-75.60839,40.27602],[-75.60392,40.2814],[-75.59988,40.28108],[-75.56019,40.25718]],[[-75.66076,40.19463],[-75.67823,40.19983],[-75.71501,40.19934],[-75.72067,40.20337],[-75.73208,40.20573],[-75.74333,40.21687]],[[-75.65087,40.26339],[-75.64858,40.27175],[-75.66478,40.2812]],[[-75.69309,40.16753],[-75.69713,40.16877],[-75.69669,40.17667],[-75.71094,40.17594],[-75.71549,40.18574],[-75.70758,40.19011],[-75.71501,40.19934]],[[-75.81048,40.15475],[-75.82137,40.16964]],[[-75.77976,40.11605],[-75.82255,40.0826]],[[-75.82799,40.14847],[-75.819,40.14839],[-75.82042,40.15447]],[[-75.74294,40.06584],[-75.79042,40.06203],[-75.80847,40.07751],[-75.82251,40.08259]],[[-75.70772,40.02842],[-75.70615,40.02122],[-75.76485,40.01509],[-75.78493,40.01106],[-75.784,40.02287],[-75.78968,40.02246],[-75.78555,40.04782],[-75.77181,40.04884],[-75.77403,40.06318]],[[-75.80658,39.99065],[-75.81455,40.0044],[-75.78493,40.01106]],[[-75.70615,40.02122],[-75.70708,40.01807],[-75.70405,40.01554],[-75.70582,40.01337]],[[-75.71535,39.99542],[-75.73187,39.99138],[-75.75287,39.99014],[-75.75079,39.98676],[-75.79769,39.98129]],[[-75.65617,40.008],[-75.66401,40.0051],[-75.66364,40.00156],[-75.68377,39.99997],[-75.68358,39.99716],[-75.69537,39.9946],[-75.70896,39.99726]],[[-75.61089,39.9293],[-75.6129,39.92449],[-75.63339,39.91515],[-75.63377,39.91682],[-75.64442,39.91934],[-75.64985,39.92302],[-75.66003,39.92479],[-75.67598,39.94444],[-75.6553,39.95421],[-75.66475,39.96732],[-75.67252,39.96781],[-75.68262,39.97555],[-75.69537,39.9946]],[[-75.76837,39.98534],[-75.7648,39.96933],[-75.769,39.95823],[-75.77311,39.95867],[-75.77568,39.9504],[-75.69439,39.93425],[-75.6899,39.92051],[-75.68824,39.92155],[-75.69039,39.92364],[-75.68645,39.92331],[-75.67955,39.92895],[-75.67988,39.93417],[-75.66786,39.93443]],[[-75.6899,39.92051],[-75.69809,39.8975],[-75.7874,39.91584],[-75.77568,39.9504]],[[-75.69809,39.8975],[-75.67099,39.88318],[-75.6663,39.88376],[-75.66853,39.86875],[-75.67066,39.86769],[-75.66564,39.86144],[-75.75901,39.85123],[-75.761,39.86994],[-75.75787,39.87023],[-75.75909,39.88909],[-75.76722,39.88827],[-75.77327,39.90073],[-75.77427,39.91144],[-75.77042,39.91213]],[[-75.82103,39.92962],[-75.81232,39.9304],[-75.80915,39.92385],[-75.80133,39.9195],[-75.7874,39.91584]],[[-75.6663,39.88376],[-75.63229,39.89732],[-75.63061,39.89567],[-75.62262,39.89688],[-75.62582,39.91242],[-75.63339,39.91515]],[[-75.75901,39.85123],[-75.78019,39.8493],[-75.78693,39.87185],[-75.82084,39.8693]],[[-75.56255,39.90168],[-75.57026,39.91179],[-75.58813,39.90367],[-75.59456,39.91186]],[[-75.62262,39.89688],[-75.61582,39.89346],[-75.61703,39.89066],[-75.59888,39.87725],[-75.59798,39.87443]],[[-75.6346,39.83031],[-75.63951,39.8701],[-75.65366,39.87835],[-75.66862,39.87075]],[[-75.7206,39.78952],[-75.72831,39.85447]],[[-75.70064,39.83812],[-75.7183,39.83406],[-75.7222,39.85004],[-75.70324,39.85273],[-75.70064,39.83812]],[[-75.78257,39.83019],[-75.78506,39.849],[-75.78019,39.8493]],[[-75.75447,39.75563],[-75.7618,39.77549],[-75.77552,39.77456],[-75.7809,39.81937]],[[-75.81299,39.72217],[-75.81786,39.73971],[-75.81072,39.74003],[-75.81103,39.75517],[-75.80884,39.759],[-75.81147,39.76596],[-75.80266,39.76635],[-75.8029,39.77453],[-75.79679,39.77467],[-75.79666,39.77796],[-75.77624,39.78069]],[[-75.829,39.79256],[-75.80719,39.79388],[-75.80737,39.79536],[-75.78928,39.79979],[-75.77904,39.80041]],[[-75.46182,40.10301],[-75.43798,40.11007],[-75.42465,40.10853]],[[-75.32659,40.10493],[-75.32126,40.09864],[-75.31934,40.08074]],[[-75.32629,40.06522],[-75.3373,40.06112],[-75.3494,40.05293]],[[-75.29894,40.06943],[-75.28674,40.07304],[-75.28171,40.07258],[-75.26443,40.05409]],[[-75.28027,39.97496],[-75.33153,39.952]],[[-75.36307,39.99799],[-75.35758,39.99534],[-75.35022,39.99708],[-75.35133,39.99412],[-75.34367,39.9915],[-75.33778,39.9838],[-75.33596,39.97613],[-75.33838,39.97246],[-75.33343,39.96828],[-75.33299,39.96336],[-75.33531,39.95516]],[[-75.54058,39.83893],[-75.52044,39.84721],[-75.51863,39.84475],[-75.46304,39.87022],[-75.45524,39.86583],[-75.46868,39.85998],[-75.4616,39.85058],[-75.46196,39.84523],[-75.46335,39.84313],[-75.46871,39.8434],[-75.47124,39.83079],[-75.46774,39.83118],[-75.46643,39.82834],[-75.47266,39.82695]],[[-75.56238,39.90176],[-75.53519,39.86605],[-75.54837,39.86588],[-75.54233,39.857],[-75.55926,39.84967],[-75.5525,39.83943]],[[-75.48863,39.90017],[-75.49814,39.9123],[-75.55199,39.88773]],[[-75.50797,39.9516],[-75.49299,39.93306],[-75.48289,39.93762],[-75.47268,39.92398],[-75.48799,39.917],[-75.48222,39.91499],[-75.48015,39.90782],[-75.47503,39.90642]],[[-75.47268,39.92398],[-75.42326,39.9463]],[[-75.4087,39.86929],[-75.41267,39.87081],[-75.41336,39.87392],[-75.41831,39.87445],[-75.4182,39.87963],[-75.42765,39.88001],[-75.43239,39.8941],[-75.435,39.89099],[-75.43998,39.89342],[-75.44929,39.89236],[-75.45027,39.8939]],[[-75.45524,39.86583],[-75.42902,39.8512],[-75.41834,39.85629]],[[-75.4171,39.83128],[-75.45466,39.8209]],[[-75.46237,40.11954],[-75.45404,40.11917],[-75.44613,40.1231],[-75.4419,40.13663],[-75.44524,40.14729],[-75.45574,40.15214],[-75.45506,40.16475],[-75.46331,40.16742],[-75.46144,40.17093],[-75.45133,40.17328]],[[-75.49008,40.22456],[-75.47027,40.21284]],[[-75.47968,40.2496],[-75.4699,40.2571]],[[-75.44386,40.25623],[-75.42271,40.24402],[-75.42018,40.24645],[-75.36955,40.21679],[-75.41076,40.17615]],[[-75.36955,40.21679],[-75.3558,40.22919],[-75.29324,40.19315],[-75.32688,40.15965]],[[-75.22732,40.1565],[-75.26042,40.12201],[-75.29815,40.14316]],[[-75.29324,40.19315],[-75.24994,40.16935],[-75.24438,40.16927],[-75.24079,40.16447],[-75.2275,40.15712]],[[-75.26042,40.12201],[-75.29736,40.08291]],[[-75.23319,40.15047],[-75.19658,40.12786],[-75.25851,40.06468],[-75.25486,40.06261]],[[-75.19658,40.12786],[-75.16847,40.11054],[-75.188,40.09144],[-75.17647,40.08467]],[[-75.21871,40.16535],[-75.19546,40.18821],[-75.13288,40.15082],[-75.16146,40.12059],[-75.17108,40.11415],[-75.1705,40.1118]],[[-75.27933,40.18572],[-75.24522,40.2185],[-75.19546,40.18821]],[[-75.24522,40.2185],[-75.26248,40.22889]],[[-75.33002,40.21376],[-75.30138,40.24229]],[[-75.38581,40.22633],[-75.33834,40.27259]],[[-75.13821,40.0941],[-75.14184,40.09766],[-75.16847,40.11054]],[[-75.09627,40.06886],[-75.13172,40.08932]],[[-75.13288,40.15082],[-75.05836,40.10587]],[[-75.09496,40.12811],[-75.07967,40.13908],[-75.07553,40.13994]],[[-75.06009,40.16479],[-75.07247,40.15755]],[[-75.14313,40.15689],[-75.10689,40.19228]],[[-75.22682,40.2074],[-75.20887,40.22582],[-75.20546,40.22383],[-75.1877,40.2415]],[[-75.27166,40.2465],[-75.24306,40.27436]],[[-75.33594,40.2731],[-75.29979,40.30782]],[[-75.41762,40.31002],[-75.40591,40.3126],[-75.40924,40.31705],[-75.40036,40.31499],[-75.4018,40.32031],[-75.3951,40.32053],[-75.39435,40.32401],[-75.38365,40.32359],[-75.37082,40.33539],[-75.36092,40.33525],[-75.35331,40.34024]],[[-75.44531,40.2571],[-75.42139,40.28056],[-75.40694,40.30243]],[[-75.44303,40.33119],[-75.40436,40.37077]],[[-75.51906,40.27127],[-75.47187,40.31439]],[[-75.47769,40.34037],[-75.48098,40.34233],[-75.48897,40.34259],[-75.48733,40.34718],[-75.49072,40.3505],[-75.44564,40.3962]],[[-75.47493,40.31461],[-75.47739,40.32069],[-75.48164,40.32363],[-75.47808,40.32589],[-75.48224,40.33587],[-75.47658,40.33714]],[[-75.53569,40.28051],[-75.54965,40.28901],[-75.49072,40.3505]],[[-75.56931,40.39792],[-75.53598,40.38174],[-75.5459,40.37073],[-75.49684,40.34436]],[[-75.60392,40.2814],[-75.61522,40.28763],[-75.5459,40.37073]],[[-75.61522,40.28763],[-75.62169,40.29329],[-75.64539,40.30503]],[[-75.64931,40.26298],[-75.64018,40.26059],[-75.63447,40.26753]],[[-75.40877,40.4886],[-75.39448,40.47989],[-75.38081,40.48154],[-75.38112,40.48643],[-75.2968,40.49389],[-75.23115,40.51714],[-75.21561,40.53271],[-75.22802,40.54174],[-75.25633,40.58244]],[[-75.33355,40.57108],[-75.3332,40.56743],[-75.34121,40.56697],[-75.34403,40.57006]],[[-75.40973,40.48798],[-75.47584,40.52913],[-75.47396,40.53529],[-75.46851,40.53708],[-75.44865,40.56211],[-75.41271,40.57672]],[[-75.49741,40.54523],[-75.53028,40.56539],[-75.51131,40.58249]],[[-75.36618,40.43625],[-75.36882,40.43192],[-75.36509,40.40609],[-75.37123,40.40582],[-75.37035,40.39733],[-75.38305,40.39633],[-75.38109,40.39547],[-75.40157,40.37496],[-75.40731,40.37255]],[[-75.38081,40.48154],[-75.37934,40.45501],[-75.37369,40.45541],[-75.37033,40.43594],[-75.36926,40.43729]],[[-75.30026,40.49347],[-75.29718,40.47389],[-75.30226,40.47342],[-75.30236,40.46912],[-75.29406,40.41095],[-75.34859,40.40529],[-75.34751,40.39882],[-75.37035,40.39733]],[[-75.53079,40.44768],[-75.45664,40.51718]],[[-75.23115,40.51714],[-75.21771,40.51282],[-75.20036,40.49516],[-75.19187,40.49127],[-75.18807,40.47756],[-75.1843,40.47321],[-75.18834,40.47184],[-75.19344,40.47549],[-75.19394,40.47204],[-75.1989,40.47215],[-75.20092,40.46907],[-75.21533,40.47021],[-75.21886,40.4645],[-75.23019,40.46254],[-75.23099,40.45862],[-75.23632,40.45465],[-75.23525,40.45071],[-75.24317,40.44729],[-75.24257,40.44129],[-75.25511,40.43464],[-75.25448,40.42941],[-75.26139,40.43216],[-75.27036,40.44166],[-75.2758,40.45527],[-75.283,40.45094],[-75.28834,40.45022],[-75.29127,40.44201],[-75.29886,40.43949]],[[-75.18834,40.47184],[-75.18629,40.46935],[-75.17591,40.46618],[-75.17353,40.46316],[-75.16137,40.46137],[-75.15629,40.4525],[-75.16362,40.44698],[-75.16205,40.44299],[-75.15479,40.44146],[-75.14569,40.44549],[-75.13775,40.4347],[-75.1244,40.43827],[-75.11644,40.43383],[-75.13506,40.41468],[-75.13458,40.41266],[-75.15002,40.40004],[-75.14925,40.39831],[-75.16013,40.38919],[-75.16216,40.38995],[-75.18906,40.36342],[-75.19714,40.36811]],[[-75.21065,40.37646],[-75.24471,40.39788],[-75.25016,40.40727],[-75.25521,40.42923]],[[-75.33636,40.40653],[-75.31252,40.3828],[-75.31307,40.36992]],[[-75.24471,40.39788],[-75.27533,40.3682]],[[-75.29493,40.35248],[-75.31621,40.33108]],[[-75.16668,40.5642],[-75.22802,40.54174]],[[-75.08384,40.55346],[-75.11003,40.52984],[-75.12147,40.53488],[-75.1274,40.5344],[-75.13489,40.53905],[-75.13872,40.55364],[-75.14464,40.55392],[-75.15037,40.56497],[-75.14989,40.57012]],[[-75.10553,40.31389],[-75.08264,40.30048],[-75.08223,40.29629],[-75.10061,40.28987],[-75.07352,40.27327],[-75.07606,40.27075],[-75.06494,40.26292],[-75.06185,40.26263],[-75.05858,40.26871],[-75.05486,40.26925],[-75.0529,40.26639],[-75.05715,40.25808],[-75.05448,40.25592],[-75.04849,40.25731],[-75.04471,40.26227],[-75.04241,40.26066],[-74.98097,40.31921],[-74.98533,40.32342],[-74.98852,40.32235],[-75.08348,40.38014],[-75.09899,40.36629],[-75.0975,40.36555],[-75.11277,40.34868],[-75.13207,40.32975],[-75.12878,40.32777]],[[-75.17798,40.46664],[-75.15742,40.48787],[-75.1101,40.52988]],[[-75.18906,40.36342],[-75.13207,40.32975]],[[-75.11644,40.43383],[-75.10893,40.43215],[-75.10635,40.43536],[-75.10142,40.43651],[-75.0952,40.43435],[-75.09446,40.43664],[-75.09875,40.44072],[-75.09136,40.43731],[-75.08366,40.44207],[-75.0721,40.4276],[-75.0604,40.42104]],[[-75.08059,40.37828],[-75.0676,40.38995],[-75.06428,40.38803],[-75.05646,40.39503],[-75.05841,40.39717],[-75.04221,40.41064]],[[-74.92713,40.32941],[-74.98097,40.31921]],[[-74.9094,40.07055],[-74.91,40.08378],[-74.91471,40.08938],[-74.91198,40.09809],[-74.90645,40.09964],[-74.90233,40.10447],[-74.90537,40.11654],[-74.89934,40.13286]],[[-74.91847,40.14547],[-74.92417,40.15085],[-74.9325,40.15355],[-74.94866,40.14641],[-74.95729,40.14585],[-74.95749,40.148],[-74.97089,40.15578],[-74.9939,40.13198]],[[-74.89866,40.13232],[-74.8878,40.13213],[-74.85557,40.15415],[-74.86207,40.1568],[-74.86097,40.15894],[-74.87018,40.16556],[-74.85782,40.16673],[-74.84449,40.17548],[-74.84394,40.17266],[-74.82652,40.16627],[-74.83282,40.16108],[-74.8231,40.14797]],[[-74.80324,40.2075],[-74.83106,40.20469],[-74.8301,40.20134],[-74.84764,40.2004],[-74.84702,40.19516],[-74.87106,40.19299],[-74.86934,40.19273],[-74.87124,40.17482],[-74.86914,40.16565]],[[-74.78905,40.21701],[-74.80159,40.20969],[-74.80027,40.20873]],[[-74.87106,40.19299],[-74.87437,40.20054],[-74.8767,40.19997],[-74.88791,40.22569],[-74.89629,40.23559],[-74.89638,40.23953],[-74.90548,40.24237],[-74.90925,40.25118],[-74.91174,40.25102],[-74.91425,40.26295],[-74.85332,40.26971]],[[-74.95749,40.148],[-74.95711,40.15838],[-74.94872,40.16502],[-74.95751,40.17326],[-74.95661,40.17833],[-74.96716,40.17433],[-74.98374,40.16318],[-75.00019,40.17094],[-75.00885,40.16691],[-75.02931,40.14645]],[[-74.95661,40.17833],[-74.95546,40.17999],[-74.94965,40.17799],[-74.92886,40.18386]],[[-74.88755,40.22474],[-74.90245,40.22134],[-74.90987,40.22202],[-74.94331,40.21418],[-74.94439,40.2115],[-74.94032,40.2083],[-74.94243,40.19475],[-74.93363,40.18885],[-74.92526,40.18893],[-74.9225,40.18677],[-74.92385,40.18573]],[[-74.91425,40.26295],[-74.96052,40.27129],[-74.98561,40.2463],[-74.97826,40.24077],[-74.97018,40.24049],[-74.9743,40.23219],[-74.96286,40.22686],[-74.96535,40.22167],[-74.95682,40.21774],[-74.95469,40.21208],[-74.94439,40.2115]],[[-74.93717,40.23383],[-74.93551,40.23757],[-74.92995,40.23762],[-74.93362,40.2336],[-74.9297,40.23193],[-74.9289,40.23553],[-74.92694,40.23545],[-74.92715,40.23256],[-74.92501,40.23232],[-74.92553,40.22524],[-74.93141,40.22414],[-74.93178,40.22131],[-74.93446,40.22067],[-74.939,40.22433],[-74.93717,40.23383]],[[-75.06618,40.21138],[-74.99875,40.17145]],[[-74.98561,40.2463],[-74.98791,40.2423],[-74.99312,40.24067],[-74.99594,40.24347],[-74.99576,40.25069],[-75.00166,40.24812],[-75.00639,40.25197],[-75.01013,40.24944],[-75.02044,40.24828],[-75.02486,40.25246],[-75.03359,40.25584],[-75.03636,40.25321],[-75.03484,40.24844],[-75.03964,40.24772],[-75.04456,40.24312],[-75.04712,40.24474],[-75.05052,40.24379],[-75.05095,40.23901],[-75.05437,40.24002],[-75.06775,40.22733],[-75.06323,40.22473],[-75.07271,40.21522]],[[-74.96052,40.27129],[-74.95504,40.27675],[-74.99923,40.30194]],[[-75.18724,40.30524],[-75.19285,40.31007],[-75.17343,40.31914],[-75.1511,40.34123]],[[-75.17783,40.29586],[-75.17429,40.29368],[-75.18548,40.28313],[-75.1521,40.26293],[-75.14353,40.27142],[-75.12578,40.26122],[-75.11909,40.26731],[-75.11613,40.26556],[-75.11206,40.26967],[-75.1131,40.27185],[-75.10757,40.27266],[-75.10131,40.27712],[-75.0966,40.27669],[-75.08997,40.28317]],[[-75.2141,40.25747],[-75.18548,40.28313]],[[-75.26358,40.28638],[-75.23606,40.31378],[-75.23229,40.31146],[-75.18146,40.3594]],[[-75.07111,40.17113],[-75.04381,40.19802]],[[-75.07341,40.21563],[-75.11099,40.23784],[-75.13781,40.21087]],[[-75.11099,40.23784],[-75.12252,40.2449],[-75.11243,40.25503],[-75.11716,40.25788],[-75.11213,40.2627],[-75.11613,40.26556]],[[-75.63943,40.36855],[-75.65603,40.37649],[-75.62788,40.42059],[-75.60122,40.43124],[-75.55976,40.40972]],[[-75.62808,40.36284],[-75.60659,40.35248]],[[-75.63897,40.31284],[-75.68397,40.34223],[-75.65603,40.37649]],[[-75.67377,40.33579],[-75.69539,40.31071],[-75.70992,40.28133],[-75.72051,40.24857],[-75.69682,40.24187]],[[-75.82829,40.44458],[-75.8163,40.44741],[-75.79946,40.45795],[-75.77261,40.44141],[-75.79805,40.41668],[-75.80455,40.40246],[-75.82368,40.38754]],[[-75.79528,40.45519],[-75.75063,40.46846],[-75.72637,40.49261],[-75.70669,40.4759],[-75.68958,40.45698],[-75.70435,40.43491],[-75.7592,40.40951],[-75.79682,40.41785]],[[-75.82378,40.5328],[-75.81132,40.51911],[-75.81842,40.51313],[-75.7695,40.48108]],[[-75.76052,40.4751],[-75.75063,40.46846]],[[-75.81195,40.4496],[-75.81181,40.45477],[-75.80227,40.45948],[-75.80267,40.46151],[-75.80801,40.45866],[-75.81079,40.46172],[-75.82081,40.45895]],[[-75.64373,40.39586],[-75.70435,40.43491]],[[-75.7592,40.40951],[-75.73825,40.40401],[-75.73854,40.3981],[-75.72063,40.39361],[-75.72278,40.38708],[-75.66272,40.36711]],[[-75.72278,40.38708],[-75.74496,40.32119],[-75.78513,40.32744],[-75.79936,40.33528],[-75.80528,40.34433],[-75.81368,40.35011],[-75.81981,40.36142],[-75.81222,40.38085],[-75.82368,40.38754]],[[-75.81132,40.51911],[-75.73994,40.58013]],[[-75.71153,40.50808],[-75.69305,40.52612],[-75.6859,40.52763],[-75.67385,40.53828]],[[-75.72637,40.49261],[-75.71183,40.50778]],[[-75.68958,40.45698],[-75.61583,40.46104],[-75.58984,40.48466]],[[-75.62788,40.42059],[-75.63602,40.441],[-75.61583,40.46104]],[[-75.79636,40.27062],[-75.78004,40.32626]],[[-75.74496,40.32119],[-75.69539,40.31071]],[[-75.79548,40.2717],[-75.78536,40.26998],[-75.77136,40.25853],[-75.73623,40.26135],[-75.72636,40.25056],[-75.72051,40.24857]],[[-75.80875,40.2521],[-75.82096,40.23388]],[[-75.82609,40.19454],[-75.80837,40.17812]],[[-75.64164,40.51773],[-75.55155,40.57863]],[[-75.65659,40.58661],[-75.69431,40.55115]],[[-75.57931,40.47803],[-75.54732,40.50496]],[[-75.54235,40.51016],[-75.51305,40.53744]],[[-75.53028,40.56539],[-75.55135,40.57877]],[[-75.50473,39.69823],[-75.48734,39.68527],[-75.48949,39.67944]],[[-75.40942,39.66084],[-75.38941,39.68161],[-75.39663,39.68514],[-75.41332,39.70419],[-75.42984,39.71336],[-75.44041,39.72443],[-75.45001,39.74387],[-75.46556,39.75293]],[[-75.38941,39.68161],[-75.36025,39.71303]],[[-75.21664,39.6634],[-75.20723,39.70904],[-75.201,39.7087],[-75.18953,39.68951],[-75.1838,39.68492],[-75.17346,39.68693],[-75.16826,39.68572]],[[-75.07567,39.80506],[-75.08164,39.79636],[-75.09165,39.79293],[-75.09289,39.78691],[-75.11285,39.77868],[-75.1176,39.77085],[-75.12199,39.77189],[-75.12976,39.76805],[-75.11819,39.76492],[-75.11382,39.76155],[-75.11705,39.75815],[-75.12105,39.74423]],[[-75.20723,39.70904],[-75.22883,39.71017],[-75.26444,39.73018],[-75.26858,39.73509],[-75.29272,39.7197],[-75.29556,39.70958],[-75.30583,39.70525],[-75.31951,39.69122]],[[-75.27112,39.7338],[-75.27597,39.73658],[-75.26707,39.74413],[-75.26502,39.76224],[-75.27479,39.76808],[-75.27471,39.77481],[-75.28272,39.77895],[-75.28257,39.78502],[-75.28758,39.78736],[-75.28623,39.79281],[-75.30177,39.78194],[-75.31552,39.77786],[-75.33108,39.7683],[-75.34442,39.75714],[-75.35325,39.74597],[-75.37824,39.74588]],[[-75.34589,39.8439],[-75.33423,39.82928],[-75.33035,39.82942],[-75.33075,39.82599],[-75.32805,39.82475],[-75.32665,39.82714],[-75.3226,39.82357],[-75.31463,39.82216],[-75.29187,39.80595],[-75.28834,39.79304],[-75.28623,39.79281],[-75.25127,39.81879],[-75.23696,39.81984]],[[-75.13953,39.715],[-75.20937,39.75653],[-75.26502,39.76224]],[[-75.12901,39.76852],[-75.13743,39.7757],[-75.14364,39.77656],[-75.15209,39.78297]],[[-75.1603,39.79175],[-75.16341,39.79421],[-75.16789,39.79376],[-75.1812,39.79838],[-75.18619,39.79748],[-75.18684,39.79911],[-75.22898,39.75806]],[[-75.18825,39.79834],[-75.19076,39.80123],[-75.19546,39.80168],[-75.19516,39.80337],[-75.20033,39.80373],[-75.2021,39.80623],[-75.2002,39.80893],[-75.20648,39.81538],[-75.21167,39.8123],[-75.21366,39.81382],[-75.21759,39.8129],[-75.22766,39.82606]],[[-75.13535,39.86174],[-75.14276,39.85145]],[[-75.16572,39.81103],[-75.1721,39.79495]],[[-75.18877,39.88083],[-75.18409,39.87365],[-75.17738,39.87008],[-75.18074,39.86924],[-75.17642,39.86735],[-75.17136,39.86877],[-75.16897,39.86333],[-75.17325,39.85761],[-75.17976,39.85949],[-75.1817,39.85681],[-75.18603,39.85921],[-75.18915,39.85864],[-75.18874,39.8611],[-75.19196,39.86041],[-75.19145,39.86428],[-75.1947,39.86369],[-75.19994,39.87318]],[[-75.49222,39.76618],[-75.49788,39.7626],[-75.5032,39.76617],[-75.50081,39.76857],[-75.50262,39.76963],[-75.49903,39.77125],[-75.49222,39.76618]],[[-75.49022,39.80744],[-75.48776,39.80863],[-75.48213,39.80512],[-75.4856,39.80239],[-75.49022,39.80744]]]}}],"note":"lvl 6 = county, lvl 8 = municipality; shared ways deduped then chained into continuous runs"}
